{
"type": "FeatureCollection",
"name": "tracks",
"crs": { "type": "name", "properties": { "name": "urn:ogc:def:crs:OGC:1.3:CRS84" } },
"features": [
{ "type": "Feature", "properties": { "name": "La Belle Via" }, "geometry": { "type": "MultiLineString", "coordinates": [ [ [ 5.050155, 45.048573, 169.27 ], [ 5.050136, 45.048477, 169.52 ], [ 5.050312, 45.048461, 169.35 ], [ 5.050363, 45.048427, 169.37 ], [ 5.050398, 45.048422, 169.34 ], [ 5.050394, 45.048354, 169.51 ], [ 5.050535, 45.0472, 170.26 ], [ 5.051725, 45.047273, 169.45 ], [ 5.05179, 45.046609, 167.96 ], [ 5.051839, 45.045934, 166.07 ], [ 5.051201, 45.045909, 165.64 ], [ 5.051205, 45.045612, 164.8 ], [ 5.051384, 45.045616, 164.85 ], [ 5.052985, 45.045497, 163.51 ], [ 5.053012, 45.04551, 163.62 ], [ 5.05306, 45.045508, 163.66 ], [ 5.053234, 45.04546, 163.58 ], [ 5.053585, 45.045423, 164.22 ], [ 5.055142, 45.045305, 166.95 ], [ 5.055547, 45.04531, 165.72 ], [ 5.055503, 45.045206, 165.43 ], [ 5.055519, 45.045196, 165.33 ], [ 5.055598, 45.045049, 164.36 ], [ 5.055799, 45.044955, 162.57 ], [ 5.055827, 45.044909, 161.89 ], [ 5.055633, 45.044903, 162.65 ], [ 5.055638, 45.044255, 154.29 ], [ 5.055646, 45.0442, 153.57 ], [ 5.055635, 45.043848, 151.98 ], [ 5.056032, 45.043767, 151.65 ], [ 5.056132, 45.043726, 151.55 ], [ 5.05579, 45.042758, 148.65 ], [ 5.055771, 45.042674, 148.47 ], [ 5.055621, 45.04228, 147.32 ], [ 5.05605, 45.042242, 146.82 ], [ 5.056144, 45.042218, 146.72 ], [ 5.056231, 45.042179, 146.53 ], [ 5.056233, 45.042147, 146.34 ], [ 5.056249, 45.042117, 146.16 ], [ 5.056276, 45.042091, 146.01 ], [ 5.056313, 45.042073, 145.89 ], [ 5.056361, 45.042063, 145.82 ], [ 5.056412, 45.042064, 145.83 ], [ 5.056459, 45.042078, 145.92 ], [ 5.056508, 45.042114, 146.16 ], [ 5.056523, 45.042137, 146.31 ], [ 5.057303, 45.042089, 147.12 ], [ 5.057676, 45.042077, 146.9 ], [ 5.057674993, 45.042061031, 144.2 ], [ 5.05775117, 45.0420172, 143.55 ], [ 5.057681497, 45.04191243, 142.52 ], [ 5.057661065, 45.041844931, 141.51 ], [ 5.057656856, 45.041730466, 141.78 ], [ 5.058200384, 45.041703452, 141.54 ], [ 5.05872644, 45.041689485, 141.42 ], [ 5.059174136, 45.041659996, 141.99 ], [ 5.059513886, 45.041624017, 143.26 ], [ 5.059823892, 45.041592828, 143.07 ], [ 5.060056163, 45.041563077, 142.79 ], [ 5.060324, 45.041524184, 142.0 ], [ 5.060436989, 45.041505124, 142.05 ], [ 5.060959765, 45.041402119, 141.7 ], [ 5.061429815, 45.041329783, 141.85 ], [ 5.061787499, 45.041293465, 141.7 ], [ 5.062204823, 45.041251798, 142.44 ], [ 5.062733885, 45.041157152, 142.15 ], [ 5.06324485, 45.041058597, 141.92 ], [ 5.063731739, 45.040956244, 141.85 ], [ 5.064146871, 45.040855218, 141.38 ], [ 5.064656892, 45.040731221, 140.71 ], [ 5.064882083, 45.040671895, 140.56 ], [ 5.065022972, 45.040598224, 140.08 ], [ 5.065110554, 45.040539329, 139.89 ], [ 5.065224322, 45.040541461, 140.41 ], [ 5.065332344, 45.040550063, 140.14 ], [ 5.065504344, 45.040508691, 140.19 ], [ 5.065717416, 45.040445347, 140.63 ], [ 5.066346238, 45.040297925, 140.11 ], [ 5.066809041, 45.040191763, 140.01 ], [ 5.067194107, 45.040087042, 139.84 ], [ 5.067709625, 45.039950201, 139.53 ], [ 5.068189888, 45.039830982, 139.87 ], [ 5.068629236, 45.039737974, 139.57 ], [ 5.069133885, 45.039631024, 139.73 ], [ 5.069490769, 45.039573484, 140.39 ], [ 5.070120865, 45.039461017, 141.26 ], [ 5.070603787, 45.039413856, 141.02 ], [ 5.071254759, 45.039380537, 141.2 ], [ 5.07176144, 45.039328687, 141.07 ], [ 5.071909669, 45.039291991, 140.74 ], [ 5.072022336, 45.039264441, 140.53 ], [ 5.07213075, 45.039283635, 141.08 ], [ 5.072227518, 45.03931153, 141.48 ], [ 5.07248526, 45.039323703, 141.73 ], [ 5.07315511, 45.039315475, 142.1 ], [ 5.073807964, 45.039333013, 141.83 ], [ 5.07431747, 45.039357461, 141.47 ], [ 5.074479385, 45.039367171, 141.46 ], [ 5.075504967, 45.039431845, 141.26 ], [ 5.075949331, 45.039474469, 140.81 ], [ 5.076322098, 45.039522669, 141.11 ], [ 5.076521306, 45.039569861, 140.96 ], [ 5.076706482, 45.039635878, 141.14 ], [ 5.076730025, 45.039644271, 141.37 ], [ 5.076730507, 45.039644443, 141.8 ], [ 5.076731003, 45.039644594, 141.61 ], [ 5.076755244, 45.039651918, 141.28 ], [ 5.076909023, 45.039698385, 140.9 ], [ 5.077244185, 45.039700617, 140.44 ], [ 5.07752632, 45.039725049, 140.01 ], [ 5.077923166, 45.039777037, 139.71 ], [ 5.078283349, 45.039808495, 139.62 ], [ 5.078631731, 45.039844416, 139.56 ], [ 5.079088688, 45.039903762, 139.7 ], [ 5.079534161, 45.039976046, 139.74 ], [ 5.079804497, 45.040004936, 139.84 ], [ 5.080328018, 45.040084245, 139.97 ], [ 5.080616766, 45.040125515, 140.31 ], [ 5.081148122, 45.040254521, 140.32 ], [ 5.081408077, 45.040326024, 140.65 ], [ 5.081612483, 45.040351899, 140.83 ], [ 5.081756465, 45.040361935, 140.85 ], [ 5.08193648, 45.040375539, 141.16 ], [ 5.082087544, 45.040415137, 141.61 ], [ 5.082281096, 45.04047091, 142.96 ], [ 5.082729417, 45.040619491, 144.42 ], [ 5.083044453, 45.040723899, 145.56 ], [ 5.08341913, 45.040822948, 147.05 ], [ 5.083523228, 45.040886756, 148.73 ], [ 5.083604355, 45.040976448, 149.57 ], [ 5.083649842, 45.041073171, 150.73 ], [ 5.083660714, 45.041204479, 152.49 ], [ 5.083664502, 45.041306224, 152.96 ], [ 5.083888272, 45.041369914, 153.41 ], [ 5.084130297, 45.041441746, 153.09 ], [ 5.084360049, 45.041505323, 152.46 ], [ 5.084558166, 45.041522826, 152.32 ], [ 5.084767609, 45.041523147, 151.28 ], [ 5.084994045, 45.041497695, 149.2 ], [ 5.085220323, 45.041468004, 148.69 ], [ 5.085375951, 45.041469332, 149.79 ], [ 5.085592479, 45.041499216, 149.23 ], [ 5.085863457, 45.041545048, 151.23 ], [ 5.086117129, 45.041608173, 153.52 ], [ 5.086244282, 45.041648214, 155.18 ], [ 5.086370644, 45.041667058, 155.98 ], [ 5.086702843, 45.041749922, 157.82 ], [ 5.086944874, 45.041821748, 158.05 ], [ 5.087294064, 45.041878838, 159.92 ], [ 5.087366452, 45.041894451, 161.92 ], [ 5.08761146, 45.041885615, 161.57 ], [ 5.087957646, 45.041862155, 163.06 ], [ 5.088177944, 45.04183257, 161.37 ], [ 5.088345373, 45.04182943, 158.01 ], [ 5.088511222, 45.041783896, 155.09 ], [ 5.088707442, 45.041750519, 155.08 ], [ 5.088933719, 45.041720821, 153.15 ], [ 5.089196189, 45.041698926, 154.73 ], [ 5.089644027, 45.041673554, 157.86 ], [ 5.090115784, 45.04164773, 158.06 ], [ 5.090461967, 45.041624263, 158.4 ], [ 5.090754336, 45.041601804, 156.78 ], [ 5.090993044, 45.041584595, 154.65 ], [ 5.091421358, 45.041517158, 152.1 ], [ 5.091622921, 45.041466706, 152.11 ], [ 5.091985656, 45.041405802, 150.19 ], [ 5.092235056, 45.04135445, 149.76 ], [ 5.092330254, 45.041339935, 150.86 ], [ 5.092434068, 45.041343943, 151.25 ], [ 5.092551973, 45.041348495, 150.78 ], [ 5.092636163, 45.04135964, 150.51 ], [ 5.092697068, 45.041388191, 151.57 ], [ 5.09278017, 45.041450265, 152.45 ], [ 5.092879094, 45.041535374, 153.5 ], [ 5.092973442, 45.041578145, 155.01 ], [ 5.093136794, 45.041625983, 156.65 ], [ 5.093487892, 45.041733925, 159.06 ], [ 5.093646059, 45.041803072, 160.66 ], [ 5.093767554, 45.041851695, 162.4 ], [ 5.093861031, 45.041871149, 164.17 ], [ 5.0940541, 45.041833579, 166.38 ], [ 5.094361074, 45.041721748, 166.51 ], [ 5.094602748, 45.04162387, 166.81 ], [ 5.094369019, 45.04145433, 167.05 ], [ 5.094294647, 45.041385731, 165.74 ], [ 5.09433349, 45.041304396, 164.04 ], [ 5.094460043, 45.041168381, 162.79 ], [ 5.094528625, 45.041082244, 161.34 ], [ 5.094585406, 45.041000571, 159.84 ], [ 5.094630386, 45.040923364, 159.27 ], [ 5.094670022, 45.040863225, 158.42 ], [ 5.094740348, 45.040823721, 156.83 ], [ 5.094823109, 45.040796709, 156.7 ], [ 5.094977783, 45.040772588, 156.05 ], [ 5.09521617, 45.040746891, 155.22 ], [ 5.095376664, 45.040718417, 154.28 ], [ 5.09551324, 45.040690392, 153.39 ], [ 5.095644472, 45.040679438, 151.18 ], [ 5.095824333, 45.040688779, 152.11 ], [ 5.096237396, 45.040693732, 153.65 ], [ 5.096697816, 45.040685063, 156.33 ], [ 5.097003882, 45.040708995, 159.22 ], [ 5.097148186, 45.040727489, 161.12 ], [ 5.097351011, 45.040710942, 159.17 ], [ 5.097607177, 45.040680663, 158.38 ], [ 5.097821962, 45.040663889, 157.61 ], [ 5.098049182, 45.040659608, 157.28 ], [ 5.098406998, 45.040627411, 156.61 ], [ 5.09891287, 45.040554242, 158.59 ], [ 5.099115537, 45.040533451, 160.1 ], [ 5.099402074, 45.040515322, 159.41 ], [ 5.099730309, 45.040492164, 160.19 ], [ 5.100028488, 45.040465329, 158.98 ], [ 5.100230835, 45.040436058, 158.19 ], [ 5.100415085, 45.040402886, 157.34 ], [ 5.100552931, 45.04040877, 157.81 ], [ 5.100661197, 45.040423698, 156.55 ], [ 5.100746023, 45.040451794, 158.98 ], [ 5.100861384, 45.040496283, 159.57 ], [ 5.10096574, 45.040566434, 159.82 ], [ 5.101076393, 45.040644951, 159.85 ], [ 5.10140409, 45.040926187, 160.36 ], [ 5.101775916, 45.041267041, 160.44 ], [ 5.101974744, 45.041462679, 160.67 ], [ 5.102138492, 45.041680191, 160.97 ], [ 5.102300649, 45.041855308, 161.95 ], [ 5.10248027, 45.042017368, 162.91 ], [ 5.102926731, 45.042433174, 164.12 ], [ 5.103178907, 45.042615075, 165.54 ], [ 5.103368738, 45.042730275, 165.72 ], [ 5.103693153, 45.042923537, 165.41 ], [ 5.103986873, 45.043096167, 165.28 ], [ 5.104288806, 45.043328034, 164.25 ], [ 5.10442594, 45.043473926, 163.52 ], [ 5.104852933, 45.043848728, 163.71 ], [ 5.105104644, 45.044017907, 164.3 ], [ 5.105429072, 45.044211164, 164.2 ], [ 5.105783718, 45.044412334, 165.0 ], [ 5.106072111, 45.044602029, 165.28 ], [ 5.106360028, 45.044779005, 165.4 ], [ 5.106630325, 45.044964798, 165.58 ], [ 5.106951496, 45.045230233, 165.91 ], [ 5.107391238, 45.045624938, 166.31 ], [ 5.107546645, 45.045778964, 167.09 ], [ 5.107877039, 45.046130131, 167.89 ], [ 5.108082524, 45.046342601, 168.42 ], [ 5.108115459, 45.046422583, 168.48 ], [ 5.108163548, 45.046587125, 169.04 ], [ 5.10820161, 45.047120943, 168.72 ], [ 5.108283043, 45.047535154, 168.74 ], [ 5.108306894, 45.047691671, 168.81 ], [ 5.108257383, 45.047807152, 169.67 ], [ 5.108214014, 45.047926759, 169.75 ], [ 5.108305243, 45.048124424, 170.31 ], [ 5.108333996, 45.048252211, 170.49 ], [ 5.10831861, 45.048320381, 170.26 ], [ 5.108279303, 45.048389003, 170.04 ], [ 5.108165446, 45.048543883, 170.1 ], [ 5.108131801, 45.048603914, 169.84 ], [ 5.108112351, 45.048723068, 170.04 ], [ 5.108135243, 45.048854149, 170.56 ], [ 5.108183653, 45.049027169, 171.26 ], [ 5.108244025, 45.049199964, 171.61 ], [ 5.108320421, 45.049321547, 171.77 ], [ 5.10838294, 45.049392483, 171.61 ], [ 5.108664199, 45.049709579, 171.86 ], [ 5.108733018, 45.049788881, 171.99 ], [ 5.108762531, 45.049936805, 172.19 ], [ 5.108828567, 45.050101007, 172.82 ], [ 5.108882641, 45.050265436, 173.31 ], [ 5.108995882, 45.050411774, 173.42 ], [ 5.108992498, 45.050480777, 173.22 ], [ 5.108946252, 45.050524077, 172.82 ], [ 5.108839082, 45.050538833, 172.5 ], [ 5.108666923, 45.050576032, 172.38 ], [ 5.108143192, 45.050653825, 172.37 ], [ 5.107393157, 45.050761353, 172.48 ], [ 5.107328488, 45.050792274, 172.8 ], [ 5.1072824, 45.050839811, 173.06 ], [ 5.107310473, 45.050949582, 173.15 ], [ 5.1073569, 45.051201765, 173.06 ], [ 5.107378187, 45.051317387, 172.96 ], [ 5.107624031, 45.051329705, 172.82 ], [ 5.107906078, 45.051349821, 172.69 ], [ 5.108116517, 45.051375534, 172.56 ], [ 5.108276083, 45.051393371, 172.58 ], [ 5.108278792, 45.051393674, 172.79 ], [ 5.108283534, 45.051393836, 173.03 ], [ 5.108518497, 45.051401863, 173.3 ], [ 5.108662078, 45.051399144, 173.52 ], [ 5.108709877, 45.051398239, 173.79 ], [ 5.108831725, 45.051455326, 173.7 ], [ 5.108866851, 45.05149508, 173.54 ], [ 5.108903618, 45.051536691, 173.42 ], [ 5.109135071, 45.051564125, 173.28 ], [ 5.109411139, 45.051584352, 173.08 ], [ 5.10950122, 45.051612342, 173.0 ], [ 5.109514089, 45.051616341, 173.12 ], [ 5.109582432, 45.051682924, 173.29 ], [ 5.109754205, 45.051794214, 173.55 ], [ 5.109907558, 45.051893126, 173.73 ], [ 5.110121997, 45.052024819, 173.9 ], [ 5.110311075, 45.052118812, 173.95 ], [ 5.110549119, 45.052241572, 174.05 ], [ 5.110827749, 45.052329624, 174.18 ], [ 5.11100359, 45.052389927, 174.25 ], [ 5.111130145, 45.052412983, 174.39 ], [ 5.111340669, 45.052440809, 174.61 ], [ 5.111479825, 45.052480595, 174.84 ], [ 5.111644025, 45.052549602, 174.87 ], [ 5.111730315, 45.052615844, 174.85 ], [ 5.111906956, 45.052697343, 174.8 ], [ 5.112123543, 45.052727174, 174.63 ], [ 5.112399938, 45.052755872, 174.36 ], [ 5.112681674, 45.052767497, 174.07 ], [ 5.113034218, 45.052752324, 174.32 ], [ 5.11320718, 45.052736315, 174.38 ], [ 5.113439148, 45.052697974, 174.24 ], [ 5.113611308, 45.052660768, 174.24 ], [ 5.11377861, 45.05265335, 174.23 ], [ 5.113952371, 45.052658537, 173.99 ], [ 5.114162339, 45.052671521, 174.02 ], [ 5.114571272, 45.052723151, 174.19 ], [ 5.115124545, 45.05279325, 174.2 ], [ 5.115503736, 45.052849683, 174.39 ], [ 5.115708364, 45.052879736, 174.51 ], [ 5.116538961, 45.053002893, 174.66 ], [ 5.117664745, 45.053176642, 175.09 ], [ 5.118435903, 45.05331046, 175.54 ], [ 5.118965424, 45.053385234, 175.87 ], [ 5.119157612, 45.05340279, 176.19 ], [ 5.119301153, 45.053400059, 176.34 ], [ 5.119473633, 45.053371322, 176.14 ], [ 5.119609907, 45.053334789, 175.72 ], [ 5.119977183, 45.053234466, 175.45 ], [ 5.120414621, 45.053090382, 175.08 ], [ 5.120912145, 45.052952576, 174.83 ], [ 5.121031118, 45.05293334, 174.6 ], [ 5.121210379, 45.052925684, 174.61 ], [ 5.121473693, 45.052924911, 174.68 ], [ 5.122863319, 45.052953583, 174.79 ], [ 5.123372166, 45.05295661, 174.65 ], [ 5.123713551, 45.052962828, 174.68 ], [ 5.123959245, 45.052970869, 174.73 ], [ 5.124055259, 45.052977524, 174.78 ], [ 5.124221754, 45.052948893, 174.9 ], [ 5.124639119, 45.052906993, 175.28 ], [ 5.124937191, 45.052875852, 175.65 ], [ 5.125306748, 45.052835922, 175.8 ], [ 5.125528036, 45.052831699, 175.93 ], [ 5.125761446, 45.052831486, 176.45 ], [ 5.126108006, 45.052816386, 176.52 ], [ 5.126580807, 45.052815844, 176.54 ], [ 5.127269074, 45.052815427, 177.0 ], [ 5.127712294, 45.052823929, 177.65 ], [ 5.128143067, 45.052819941, 177.91 ], [ 5.128675191, 45.052805529, 178.61 ], [ 5.12950635, 45.052785398, 179.13 ], [ 5.130134165, 45.052769149, 179.44 ], [ 5.130510466, 45.052749224, 179.64 ], [ 5.130875613, 45.052750723, 179.59 ], [ 5.131217805, 45.052778114, 179.66 ], [ 5.131482571, 45.052815472, 179.19 ], [ 5.13165682, 45.052833349, 178.24 ], [ 5.131878914, 45.05285031, 177.22 ], [ 5.132321811, 45.052850316, 176.41 ], [ 5.133416445, 45.052833595, 175.37 ], [ 5.133757832, 45.052839782, 175.05 ], [ 5.133956326, 45.052865676, 175.04 ], [ 5.134198466, 45.0529374, 174.83 ], [ 5.134319698, 45.0529775, 174.67 ], [ 5.134952046, 45.053236895, 174.52 ], [ 5.13505485, 45.053264621, 174.48 ], [ 5.135265148, 45.053286044, 174.45 ], [ 5.136361577, 45.053472896, 174.54 ], [ 5.136740147, 45.0535123, 174.74 ], [ 5.137516689, 45.053628914, 175.05 ], [ 5.139889009, 45.053999115, 175.44 ], [ 5.140726021, 45.054131516, 176.02 ], [ 5.142375971, 45.054392517, 176.4 ], [ 5.142682334, 45.054421623, 176.62 ], [ 5.142953584, 45.054471556, 177.25 ], [ 5.143088248, 45.054549571, 177.42 ], [ 5.143831589, 45.0550486, 177.4 ], [ 5.144034644, 45.055193175, 177.62 ], [ 5.144290423, 45.055464009, 177.88 ], [ 5.144620415, 45.055797051, 177.66 ], [ 5.144846618, 45.056076938, 177.71 ], [ 5.145013794, 45.056222204, 177.81 ], [ 5.145216858, 45.056366778, 177.85 ], [ 5.145420816, 45.056534668, 177.88 ], [ 5.145700857, 45.056813516, 178.03 ], [ 5.145904576, 45.056975047, 178.17 ], [ 5.146470127, 45.057362938, 178.28 ], [ 5.146619187, 45.057425823, 178.37 ], [ 5.146741069, 45.057404384, 178.52 ], [ 5.146863909, 45.057329894, 178.65 ], [ 5.147244713, 45.057114674, 178.57 ], [ 5.147778258, 45.056824386, 178.39 ], [ 5.148089724, 45.056674136, 178.19 ], [ 5.148278189, 45.056594137, 177.87 ], [ 5.148426414, 45.056557338, 177.46 ], [ 5.148521786, 45.056547014, 177.26 ], [ 5.148660328, 45.056569796, 177.18 ], [ 5.148939083, 45.056814722, 177.23 ], [ 5.14939797, 45.057230111, 177.61 ], [ 5.149800427, 45.057578709, 178.0 ], [ 5.151133608, 45.058782218, 178.38 ], [ 5.151227134, 45.058801624, 178.69 ], [ 5.151312722, 45.058770274, 178.87 ], [ 5.15137656, 45.058718131, 178.9 ], [ 5.151677154, 45.058440808, 179.16 ], [ 5.151902761, 45.058237054, 179.64 ], [ 5.151953495, 45.058155467, 180.12 ], [ 5.151998084, 45.058069757, 180.76 ], [ 5.15215507, 45.057638237, 181.32 ], [ 5.152217114, 45.057539462, 181.43 ], [ 5.1522853, 45.05744481, 180.78 ], [ 5.152394539, 45.057328154, 180.03 ], [ 5.152545319, 45.057202208, 179.15 ], [ 5.152664779, 45.057195657, 178.41 ], [ 5.152783478, 45.057324879, 178.24 ], [ 5.152928222, 45.057508749, 178.73 ], [ 5.153266501, 45.057899939, 179.35 ], [ 5.153540443, 45.058174644, 179.97 ], [ 5.153870831, 45.058516137, 180.57 ], [ 5.154143147, 45.058748448, 180.69 ], [ 5.154330911, 45.058961181, 180.7 ], [ 5.154456414, 45.059111482, 180.95 ], [ 5.154429038, 45.059177769, 181.02 ], [ 5.154366345, 45.059259589, 180.91 ], [ 5.154245633, 45.059389197, 180.91 ], [ 5.154194901, 45.059470784, 180.84 ], [ 5.154016717, 45.059817869, 180.48 ], [ 5.153921234, 45.059980929, 180.29 ], [ 5.153801336, 45.060131733, 180.04 ], [ 5.153696606, 45.060210122, 179.79 ], [ 5.153468715, 45.06035453, 179.66 ], [ 5.153384675, 45.060426155, 179.63 ], [ 5.153378803, 45.060506876, 179.66 ], [ 5.15342902, 45.06056742, 179.74 ], [ 5.153508738, 45.060616788, 179.84 ], [ 5.153656048, 45.060711517, 179.9 ], [ 5.154325581, 45.061154633, 180.06 ], [ 5.15471885, 45.061418543, 180.43 ], [ 5.15520495, 45.061761262, 180.67 ], [ 5.15544444, 45.061917842, 180.95 ], [ 5.15558901, 45.062018984, 181.13 ], [ 5.155705571, 45.062014607, 181.37 ], [ 5.155793336, 45.061962, 181.7 ], [ 5.156238955, 45.061720039, 181.71 ], [ 5.156585171, 45.061539395, 182.41 ], [ 5.156796587, 45.061433483, 183.03 ], [ 5.157143779, 45.061278274, 183.49 ], [ 5.157354866, 45.061163881, 183.59 ], [ 5.157431155, 45.061124222, 183.98 ], [ 5.157522915, 45.061084665, 184.22 ], [ 5.157884541, 45.060928771, 183.41 ], [ 5.158283272, 45.060713166, 182.67 ], [ 5.158447156, 45.060616656, 181.72 ], [ 5.158635621, 45.060536639, 180.56 ], [ 5.158801139, 45.060482521, 178.49 ], [ 5.159075889, 45.060311741, 174.47 ], [ 5.159641037, 45.059910477, 169.45 ], [ 5.160269026, 45.059431629, 167.63 ], [ 5.16030844, 45.059367228, 167.1 ], [ 5.160356543, 45.059217809, 166.93 ], [ 5.160395719, 45.058992199, 169.19 ], [ 5.160462631, 45.058709837, 169.51 ], [ 5.160538512, 45.058504727, 168.92 ], [ 5.160685839, 45.058289747, 165.54 ], [ 5.16078728, 45.058126565, 162.73 ], [ 5.160885032, 45.05802285, 158.23 ], [ 5.161007614, 45.057787136, 158.32 ], [ 5.161100615, 45.057560481, 156.5 ], [ 5.161186326, 45.057300028, 157.25 ], [ 5.16124631, 45.056993407, 155.7 ], [ 5.161244104, 45.056781327, 155.87 ], [ 5.161243699, 45.056615879, 155.99 ], [ 5.161223136, 45.056548398, 155.97 ], [ 5.161224737, 45.056434881, 153.37 ], [ 5.161350502, 45.056436683, 152.46 ], [ 5.16180457, 45.056415143, 152.25 ], [ 5.162313791, 45.056377105, 150.37 ], [ 5.162336052, 45.056375443, 149.95 ], [ 5.162341717, 45.056375019, 151.83 ], [ 5.16289697, 45.056338783, 155.23 ], [ 5.163159808, 45.056325194, 158.43 ], [ 5.163272956, 45.056310268, 161.21 ], [ 5.163376601, 45.056359165, 162.43 ], [ 5.163409128, 45.056426413, 164.32 ], [ 5.163552761, 45.056890294, 164.35 ], [ 5.163636914, 45.057363815, 164.88 ], [ 5.163715985, 45.057705919, 164.73 ], [ 5.163731146, 45.057943202, 165.64 ], [ 5.163768103, 45.05812491, 165.16 ], [ 5.163808416, 45.058238673, 164.17 ], [ 5.163894088, 45.058751408, 163.65 ], [ 5.163914904, 45.058980097, 163.6 ], [ 5.163919003, 45.059086079, 163.9 ], [ 5.163921056, 45.059293919, 164.02 ], [ 5.163945479, 45.059615873, 164.51 ], [ 5.163958183, 45.059789566, 164.95 ], [ 5.163965646, 45.060137304, 165.79 ], [ 5.163956143, 45.060201126, 165.42 ], [ 5.16392034, 45.060358793, 165.6 ], [ 5.163891338, 45.060537539, 166.21 ], [ 5.163851519, 45.060746194, 166.21 ], [ 5.163838001, 45.060861003, 166.41 ], [ 5.163831121, 45.060992653, 166.59 ], [ 5.163833416, 45.061052004, 166.68 ], [ 5.163861488, 45.061468281, 166.84 ], [ 5.163875012, 45.061663172, 166.95 ], [ 5.163906644, 45.061861953, 167.1 ], [ 5.163970809, 45.062127982, 167.43 ], [ 5.164050951, 45.062342791, 167.95 ], [ 5.164221891, 45.062738263, 168.01 ], [ 5.164290809, 45.06297238, 168.47 ], [ 5.164326457, 45.063120174, 168.64 ], [ 5.16438423, 45.063220871, 168.72 ], [ 5.164455605, 45.063363728, 167.96 ], [ 5.164513378, 45.063464425, 167.64 ], [ 5.164523296, 45.063566052, 167.12 ], [ 5.16453305, 45.063663439, 166.8 ], [ 5.164501915, 45.063787075, 166.57 ], [ 5.164464799, 45.063910828, 166.91 ], [ 5.164463573, 45.064033884, 167.21 ], [ 5.164485947, 45.064147996, 167.37 ], [ 5.164543393, 45.064240214, 167.45 ], [ 5.164626241, 45.06437012, 167.4 ], [ 5.164730154, 45.064580225, 167.35 ], [ 5.164801244, 45.064715663, 167.68 ], [ 5.164828782, 45.064808463, 167.81 ], [ 5.164864761, 45.064964735, 167.97 ], [ 5.164892133, 45.065053295, 168.23 ], [ 5.164949252, 45.065137034, 168.51 ], [ 5.165035625, 45.065203235, 168.7 ], [ 5.165181817, 45.065268274, 169.16 ], [ 5.165530175, 45.065452413, 169.61 ], [ 5.165732012, 45.065563036, 169.91 ], [ 5.165968757, 45.065647525, 170.42 ], [ 5.166168955, 45.065715755, 170.87 ], [ 5.16636866, 45.065771265, 171.2 ], [ 5.166645803, 45.065816785, 171.77 ], [ 5.166838707, 45.065851215, 172.29 ], [ 5.167043738, 45.065889652, 172.72 ], [ 5.167255738, 45.065953407, 173.01 ], [ 5.167394803, 45.065988884, 173.59 ], [ 5.168180192, 45.066172996, 174.09 ], [ 5.168778005, 45.066305603, 174.78 ], [ 5.169309196, 45.066418293, 176.94 ], [ 5.169629536, 45.066496904, 179.55 ], [ 5.170015186, 45.066561513, 181.7 ], [ 5.170299141, 45.066628104, 183.89 ], [ 5.170561636, 45.06675875, 185.92 ], [ 5.170726278, 45.066836149, 186.57 ], [ 5.170902721, 45.066909074, 186.64 ], [ 5.17109113, 45.066981768, 186.75 ], [ 5.171189969, 45.067060448, 186.75 ], [ 5.171266692, 45.067186227, 186.81 ], [ 5.171304888, 45.067244878, 186.59 ], [ 5.171375506, 45.067367594, 186.74 ], [ 5.171450418, 45.067446742, 187.16 ], [ 5.171623187, 45.067579133, 187.43 ], [ 5.171789644, 45.067703163, 187.88 ], [ 5.171957089, 45.067852627, 188.49 ], [ 5.172105271, 45.067968528, 188.72 ], [ 5.172308613, 45.068117293, 188.73 ], [ 5.172413603, 45.068200095, 188.91 ], [ 5.172536541, 45.068282547, 188.85 ], [ 5.172660139, 45.068381957, 188.56 ], [ 5.172747185, 45.068465109, 188.42 ], [ 5.17281063, 45.068557206, 188.25 ], [ 5.172924734, 45.068720438, 188.09 ], [ 5.172975721, 45.068800051, 188.0 ], [ 5.173152779, 45.069042661, 188.02 ], [ 5.173258925, 45.069155137, 188.03 ], [ 5.173377531, 45.069280099, 188.23 ], [ 5.17357424, 45.06941202, 188.39 ], [ 5.173716612, 45.069532275, 188.57 ], [ 5.173981805, 45.0697318, 188.78 ], [ 5.174191798, 45.069897402, 189.1 ], [ 5.174420236, 45.07007537, 189.29 ], [ 5.174630068, 45.070236732, 189.53 ], [ 5.174795385, 45.070331082, 189.72 ], [ 5.174953897, 45.070404353, 189.96 ], [ 5.175130357, 45.070477273, 189.99 ], [ 5.175498423, 45.070550692, 190.03 ], [ 5.17587862, 45.070628117, 190.02 ], [ 5.176248008, 45.07073545, 190.0 ], [ 5.176539789, 45.07084854, 190.12 ], [ 5.176735519, 45.07095502, 190.02 ], [ 5.176853147, 45.071054542, 189.77 ], [ 5.176703913, 45.071065943, 189.68 ], [ 5.176602209, 45.07106793, 189.46 ], [ 5.176499516, 45.071044481, 189.02 ], [ 5.176426075, 45.071003491, 188.68 ], [ 5.176317234, 45.07097592, 188.36 ], [ 5.176246763, 45.071011237, 188.0 ], [ 5.176204367, 45.071075702, 187.62 ], [ 5.176124345, 45.071096357, 187.35 ], [ 5.17604451, 45.071044885, 187.4 ], [ 5.175995165, 45.071007666, 187.47 ], [ 5.175909677, 45.07096479, 187.0 ], [ 5.175825673, 45.070960067, 186.67 ], [ 5.175748725, 45.070982782, 186.17 ], [ 5.175680396, 45.071073209, 185.23 ], [ 5.175646974, 45.071137499, 183.95 ], [ 5.175604084, 45.071189246, 182.88 ], [ 5.17551418, 45.071186759, 181.28 ], [ 5.175461185, 45.071132642, 180.81 ], [ 5.1753555, 45.07110925, 179.03 ], [ 5.175216063, 45.071141671, 177.36 ], [ 5.175126111, 45.071291914, 175.36 ], [ 5.175088354, 45.071398714, 174.99 ], [ 5.175057402, 45.071526593, 172.88 ], [ 5.175071512, 45.07158147, 173.06 ], [ 5.1751126, 45.071714307, 173.0 ], [ 5.17515377, 45.071849262, 173.39 ], [ 5.175194941, 45.071984219, 173.02 ], [ 5.175285788, 45.072164873, 172.8 ], [ 5.175374162, 45.072281937, 171.83 ], [ 5.175487785, 45.072432448, 171.42 ], [ 5.175557388, 45.072528666, 170.39 ], [ 5.175621172, 45.072629241, 168.82 ], [ 5.175659543, 45.072692128, 167.74 ], [ 5.175668164, 45.07275984, 166.5 ], [ 5.175670472, 45.07281919, 165.49 ], [ 5.175667127, 45.072887135, 165.54 ], [ 5.175693202, 45.072941779, 165.7 ], [ 5.175743867, 45.073012912, 165.75 ], [ 5.175908654, 45.073247273, 165.9 ], [ 5.175966293, 45.073343725, 166.41 ], [ 5.176039405, 45.073376237, 166.73 ], [ 5.176202963, 45.073425013, 166.87 ], [ 5.176284698, 45.073525237, 167.29 ], [ 5.17639119, 45.073646189, 168.27 ], [ 5.176480229, 45.07378021, 168.87 ], [ 5.176587545, 45.073922358, 168.75 ], [ 5.176677739, 45.074086053, 168.44 ], [ 5.1767551, 45.074381517, 168.3 ], [ 5.176967012, 45.074903447, 167.83 ], [ 5.177026798, 45.075055009, 167.3 ], [ 5.177125289, 45.075277937, 167.26 ], [ 5.177161309, 45.075434206, 167.63 ], [ 5.177164609, 45.075518992, 167.64 ], [ 5.177234713, 45.075781717, 167.59 ], [ 5.17726475, 45.075938103, 167.53 ], [ 5.177336504, 45.076089431, 167.59 ], [ 5.177430872, 45.076206377, 167.56 ], [ 5.177548843, 45.076314377, 168.16 ], [ 5.177796422, 45.076521663, 168.27 ], [ 5.177910226, 45.076676411, 168.07 ], [ 5.177576116, 45.076861127, 167.8 ], [ 5.177349394, 45.076958893, 167.86 ], [ 5.17730749, 45.077036077, 167.4 ], [ 5.177310626, 45.077116623, 167.28 ], [ 5.177336704, 45.077171266, 167.73 ], [ 5.177372726, 45.077327535, 168.02 ], [ 5.177445143, 45.077495819, 168.36 ], [ 5.177547973, 45.077676237, 168.81 ], [ 5.177606773, 45.077802364, 169.31 ], [ 5.177668421, 45.077847826, 169.11 ], [ 5.177782931, 45.0778668, 169.48 ], [ 5.177920545, 45.077864111, 169.56 ], [ 5.178248967, 45.077840721, 169.57 ], [ 5.178375112, 45.077850982, 169.97 ], [ 5.178578874, 45.077855483, 171.05 ], [ 5.178747728, 45.077886122, 172.08 ], [ 5.178928713, 45.077920765, 172.94 ], [ 5.179508438, 45.078046247, 174.57 ], [ 5.179810083, 45.078103984, 175.7 ], [ 5.179942542, 45.078122605, 176.53 ], [ 5.18008082, 45.078136869, 178.49 ], [ 5.180212453, 45.078134293, 180.68 ], [ 5.180403423, 45.078117829, 182.51 ], [ 5.180659384, 45.07807888, 184.51 ], [ 5.180861991, 45.078053702, 186.62 ], [ 5.181112629, 45.078031825, 187.12 ], [ 5.181333185, 45.078006295, 187.58 ], [ 5.181601772, 45.077984066, 187.69 ], [ 5.181697175, 45.077973713, 187.75 ], [ 5.182174558, 45.077931485, 187.68 ], [ 5.182817611, 45.077838281, 187.74 ], [ 5.183246091, 45.077770491, 187.95 ], [ 5.183579334, 45.077717293, 188.07 ], [ 5.183918726, 45.077668216, 188.11 ], [ 5.184043713, 45.077648795, 188.12 ], [ 5.184269587, 45.077606185, 188.29 ], [ 5.184393911, 45.077569808, 188.28 ], [ 5.184506103, 45.077529425, 188.31 ], [ 5.184671978, 45.077483748, 188.42 ], [ 5.184820566, 45.077455379, 188.71 ], [ 5.1849994, 45.077434902, 188.8 ], [ 5.185184219, 45.077414307, 189.12 ], [ 5.185369533, 45.07740643, 189.49 ], [ 5.185638448, 45.077392671, 189.82 ], [ 5.185901545, 45.077383267, 190.03 ], [ 5.185984979, 45.077373145, 190.22 ], [ 5.186068081, 45.077354544, 190.2 ], [ 5.186156338, 45.07731463, 190.15 ], [ 5.186220829, 45.077279424, 190.1 ], [ 5.186291964, 45.077261059, 190.05 ], [ 5.186370741, 45.077284968, 190.45 ], [ 5.186474113, 45.077325364, 190.7 ], [ 5.186637814, 45.077377304, 190.84 ], [ 5.1868193, 45.077424653, 191.09 ], [ 5.186982339, 45.077459635, 191.33 ], [ 5.18719956, 45.077502039, 191.14 ], [ 5.187308253, 45.077525361, 190.86 ], [ 5.187371401, 45.077608971, 190.8 ], [ 5.187445853, 45.077675389, 190.54 ], [ 5.187698131, 45.077848622, 190.38 ], [ 5.187815462, 45.077939654, 190.27 ], [ 5.187938278, 45.07801785, 190.5 ], [ 5.188329501, 45.078222293, 190.77 ], [ 5.188720231, 45.078414018, 191.13 ], [ 5.188983156, 45.078553098, 191.23 ], [ 5.18925838, 45.078700422, 191.29 ], [ 5.18964978, 45.078909099, 191.29 ], [ 5.189895257, 45.079061248, 191.33 ], [ 5.190183449, 45.07923377, 191.25 ], [ 5.190385759, 45.079353887, 191.67 ], [ 5.190624925, 45.079497673, 192.0 ], [ 5.190814895, 45.079608486, 192.67 ], [ 5.191006194, 45.079753213, 192.93 ], [ 5.191228243, 45.079918548, 193.53 ], [ 5.191438659, 45.080092596, 193.81 ], [ 5.191556996, 45.080209059, 194.14 ], [ 5.19171107, 45.080320577, 194.1 ], [ 5.191859493, 45.08044069, 194.3 ], [ 5.192191411, 45.080659015, 194.32 ], [ 5.192431251, 45.080819755, 194.29 ], [ 5.192639513, 45.080938691, 194.35 ], [ 5.192907944, 45.081064926, 194.33 ], [ 5.193231227, 45.081215537, 194.33 ], [ 5.193407911, 45.081292668, 194.35 ], [ 5.193901649, 45.081514165, 194.44 ], [ 5.194217788, 45.081635217, 194.4 ], [ 5.194502847, 45.081727181, 194.37 ], [ 5.194811675, 45.081814434, 194.39 ], [ 5.195126487, 45.081901569, 194.24 ], [ 5.195362348, 45.08196056, 194.16 ], [ 5.195531223, 45.081991173, 194.06 ], [ 5.195693781, 45.082013425, 194.13 ], [ 5.195921495, 45.082017422, 194.12 ], [ 5.196151697, 45.081932277, 194.39 ], [ 5.196584012, 45.081809207, 194.72 ], [ 5.197217271, 45.081618535, 195.15 ], [ 5.197714735, 45.081477206, 195.52 ], [ 5.197903879, 45.081414079, 195.92 ], [ 5.198099341, 45.081359314, 196.03 ], [ 5.198277516, 45.081321858, 196.02 ], [ 5.198355804, 45.081333041, 196.04 ], [ 5.198458859, 45.081364948, 196.05 ], [ 5.198544462, 45.081409927, 196.05 ], [ 5.1986181, 45.081455142, 195.71 ], [ 5.198655835, 45.081501065, 195.17 ], [ 5.198974351, 45.081986915, 194.64 ], [ 5.199132112, 45.082191686, 194.06 ], [ 5.199216893, 45.082291834, 193.43 ], [ 5.199323609, 45.082340638, 193.21 ], [ 5.199444618, 45.08237219, 193.18 ], [ 5.199631447, 45.082402442, 193.14 ], [ 5.199835895, 45.082423861, 193.19 ], [ 5.199991473, 45.08242079, 193.38 ], [ 5.200122781, 45.082409712, 193.61 ], [ 5.200313427, 45.082384735, 193.63 ], [ 5.200515874, 45.082355282, 193.56 ], [ 5.200760874, 45.082341959, 193.44 ], [ 5.200983105, 45.082358782, 193.14 ], [ 5.201181403, 45.082376077, 192.93 ], [ 5.201349615, 45.082389724, 192.85 ], [ 5.201517995, 45.082407611, 192.85 ], [ 5.20181469, 45.082414476, 192.84 ], [ 5.201948991, 45.082403337, 192.91 ], [ 5.202074983, 45.082409332, 192.92 ], [ 5.202201643, 45.082432284, 192.95 ], [ 5.202341106, 45.082476196, 192.96 ], [ 5.202516303, 45.082515158, 192.99 ], [ 5.202715437, 45.082553647, 192.97 ], [ 5.202853565, 45.082563645, 192.97 ], [ 5.202997509, 45.082569284, 192.99 ], [ 5.203232628, 45.082609182, 192.99 ], [ 5.203359122, 45.082627893, 193.0 ], [ 5.203449213, 45.082634598, 193.02 ], [ 5.203580855, 45.082631994, 193.04 ], [ 5.203879542, 45.082613359, 192.96 ], [ 5.20413086, 45.082608388, 192.86 ], [ 5.204365062, 45.082624968, 192.69 ], [ 5.204640649, 45.082628001, 192.51 ], [ 5.204904937, 45.082648227, 192.32 ], [ 5.205121021, 45.082660921, 192.19 ], [ 5.2052653, 45.082675036, 192.07 ], [ 5.205487536, 45.082691851, 192.03 ], [ 5.205733203, 45.082695473, 192.02 ], [ 5.206062645, 45.082697436, 192.17 ], [ 5.206229689, 45.082681401, 192.13 ], [ 5.206407697, 45.082639693, 192.07 ], [ 5.206561435, 45.082589981, 191.94 ], [ 5.206775678, 45.08255604, 191.91 ], [ 5.206948204, 45.082527168, 191.69 ], [ 5.207186048, 45.082484274, 191.85 ], [ 5.207460296, 45.082453385, 192.04 ], [ 5.207680689, 45.082423564, 192.11 ], [ 5.207799359, 45.082395758, 192.13 ], [ 5.208276091, 45.082184789, 191.6 ], [ 5.208540168, 45.082048036, 190.88 ], [ 5.208804076, 45.081907043, 190.73 ], [ 5.208956135, 45.081814935, 190.8 ], [ 5.20916054, 45.081683606, 190.66 ], [ 5.209416452, 45.081491859, 191.35 ], [ 5.209661568, 45.081330024, 192.08 ], [ 5.209871114, 45.081177378, 192.21 ], [ 5.209974378, 45.081065114, 192.28 ], [ 5.209974437, 45.08106505, 192.34 ], [ 5.209974464, 45.081065022, 192.16 ], [ 5.210140328, 45.081019307, 192.25 ], [ 5.210235396, 45.08100045, 192.03 ], [ 5.21038879, 45.080942255, 192.1 ], [ 5.211020485, 45.080713351, 192.31 ], [ 5.211215428, 45.080645844, 192.5 ], [ 5.211463552, 45.080560311, 192.39 ], [ 5.211664644, 45.080496924, 192.61 ], [ 5.211770503, 45.080448155, 192.56 ], [ 5.211854608, 45.08045497, 192.59 ], [ 5.211950563, 45.08061004, 192.63 ], [ 5.212074204, 45.080861757, 192.24 ], [ 5.212088248, 45.08091171, 191.95 ], [ 5.212127127, 45.080981673, 191.73 ], [ 5.212197849, 45.081108934, 191.08 ], [ 5.212256062, 45.081218086, 189.88 ], [ 5.21235638, 45.081483376, 188.8 ], [ 5.212480466, 45.08174395, 187.67 ], [ 5.212544328, 45.081844504, 186.45 ], [ 5.212589568, 45.081928457, 185.7 ], [ 5.212621331, 45.081974495, 185.48 ], [ 5.212665228, 45.082024533, 185.59 ], [ 5.212749755, 45.082041947, 185.63 ], [ 5.212863026, 45.082029091, 185.4 ], [ 5.212928007, 45.082006587, 183.68 ], [ 5.212998637, 45.081975487, 184.0 ], [ 5.213376392, 45.081836464, 184.23 ], [ 5.213700122, 45.081694271, 184.83 ], [ 5.213870628, 45.081614517, 185.87 ], [ 5.214047619, 45.081547362, 188.38 ], [ 5.214183061, 45.081489517, 188.66 ], [ 5.214276449, 45.081428265, 188.86 ], [ 5.214387788, 45.081366657, 188.56 ], [ 5.214481846, 45.081322362, 187.32 ], [ 5.214606999, 45.081307147, 186.22 ], [ 5.214714703, 45.081305006, 185.51 ], [ 5.214851655, 45.081285314, 185.0 ], [ 5.215022829, 45.081222515, 183.9 ], [ 5.215158605, 45.081173148, 184.28 ], [ 5.215547727, 45.081019042, 184.45 ], [ 5.215790365, 45.080946337, 184.29 ], [ 5.21602618, 45.080852554, 182.82 ], [ 5.216227269, 45.080789158, 183.55 ], [ 5.216410742, 45.080734597, 183.58 ], [ 5.216552835, 45.080693588, 183.52 ], [ 5.21668212, 45.08063162, 183.51 ], [ 5.216835508, 45.080573415, 184.79 ], [ 5.216935043, 45.080516281, 184.66 ], [ 5.217063991, 45.080445834, 184.49 ], [ 5.217181476, 45.080388343, 184.07 ], [ 5.217305449, 45.08034345, 183.86 ], [ 5.217542436, 45.080279338, 181.06 ], [ 5.217809339, 45.08021463, 181.25 ], [ 5.218040509, 45.080154875, 181.52 ], [ 5.218158833, 45.080118579, 182.24 ], [ 5.218253391, 45.080086999, 182.19 ], [ 5.218324352, 45.080064373, 184.6 ], [ 5.218394473, 45.080020551, 183.91 ], [ 5.2184576, 45.079951413, 183.99 ], [ 5.218508592, 45.079878275, 184.14 ], [ 5.218560762, 45.07983481, 185.05 ], [ 5.218643185, 45.079799228, 185.39 ], [ 5.218744061, 45.079776007, 185.85 ], [ 5.218857915, 45.079777982, 185.47 ], [ 5.218936372, 45.07979339, 184.98 ], [ 5.219008341, 45.079796199, 183.93 ], [ 5.219103235, 45.079773096, 183.61 ], [ 5.219245155, 45.079727844, 183.46 ], [ 5.21939921, 45.079686592, 183.43 ], [ 5.219612594, 45.079631431, 183.75 ], [ 5.219849743, 45.079571553, 184.74 ], [ 5.220092539, 45.079503077, 185.46 ], [ 5.220234962, 45.079470541, 186.51 ], [ 5.220621905, 45.07941298, 186.23 ], [ 5.220805706, 45.07936689, 187.21 ], [ 5.220984365, 45.079342117, 187.18 ], [ 5.221173981, 45.079291668, 187.36 ], [ 5.221368401, 45.079211426, 186.46 ], [ 5.221515629, 45.079149095, 186.91 ], [ 5.221753446, 45.07910617, 186.52 ], [ 5.221907667, 45.079069154, 186.5 ], [ 5.222055229, 45.0790153, 186.23 ], [ 5.222302655, 45.078912787, 187.79 ], [ 5.222591289, 45.078792479, 189.47 ], [ 5.222774076, 45.078720952, 189.15 ], [ 5.222910007, 45.078675814, 189.22 ], [ 5.223115716, 45.078578373, 189.56 ], [ 5.223268922, 45.078515921, 188.62 ], [ 5.223410498, 45.078462184, 187.42 ], [ 5.223574659, 45.078374057, 187.43 ], [ 5.223720871, 45.078286287, 187.43 ], [ 5.223789635, 45.078208548, 187.98 ], [ 5.223822669, 45.078135766, 188.49 ], [ 5.223924341, 45.077831452, 189.06 ], [ 5.224024368, 45.077485807, 189.33 ], [ 5.224084621, 45.0773446, 189.71 ], [ 5.224174282, 45.077190077, 189.35 ], [ 5.224228888, 45.077057467, 189.13 ], [ 5.224276498, 45.076899541, 188.9 ], [ 5.224374753, 45.076659995, 189.06 ], [ 5.224475199, 45.076475559, 189.58 ], [ 5.224559381, 45.076333873, 190.09 ], [ 5.224645754, 45.076247297, 190.62 ], [ 5.224763897, 45.076206755, 191.14 ], [ 5.22489603, 45.076216844, 191.22 ], [ 5.224980636, 45.076236367, 190.69 ], [ 5.225071899, 45.076272728, 190.44 ], [ 5.225230325, 45.076341688, 189.95 ], [ 5.225352179, 45.076394408, 189.28 ], [ 5.22561965, 45.076495129, 188.78 ], [ 5.225734508, 45.076522533, 187.29 ], [ 5.225852988, 45.076490468, 184.79 ], [ 5.225922761, 45.076438163, 181.03 ], [ 5.225986212, 45.076377499, 180.2 ], [ 5.226030197, 45.076279041, 178.71 ], [ 5.226019747, 45.076246778, 177.17 ], [ 5.225996064, 45.076173658, 177.56 ], [ 5.225962099, 45.076072515, 181.04 ], [ 5.225907656, 45.075908143, 181.53 ], [ 5.225885003, 45.075864163, 182.77 ], [ 5.225862233, 45.075819956, 185.07 ], [ 5.225857802, 45.075786923, 186.13 ], [ 5.225853719, 45.075756487, 185.96 ], [ 5.225858642, 45.075695041, 182.99 ], [ 5.225865721, 45.075606697, 183.28 ], [ 5.22590903, 45.075491282, 182.99 ], [ 5.225893352, 45.075398259, 182.34 ], [ 5.225876494, 45.07527556, 182.5 ], [ 5.225842531, 45.075174417, 185.04 ], [ 5.225819185, 45.075039121, 185.94 ], [ 5.225784715, 45.074925261, 187.12 ], [ 5.225769375, 45.074840715, 189.69 ], [ 5.225764989, 45.074730495, 190.95 ], [ 5.225792363, 45.074365087, 193.14 ], [ 5.225800489, 45.07431467, 193.96 ], [ 5.225811571, 45.074245911, 194.26 ], [ 5.225871645, 45.074100464, 192.67 ], [ 5.225919418, 45.073946777, 192.84 ], [ 5.225981517, 45.073852199, 192.34 ], [ 5.226049262, 45.073749024, 190.55 ], [ 5.226106389, 45.073680001, 189.55 ], [ 5.22641264, 45.073331791, 187.69 ], [ 5.226455814, 45.073282702, 186.6 ], [ 5.226759059, 45.07292875, 186.96 ], [ 5.22701045, 45.072655282, 188.41 ], [ 5.227068959, 45.072591635, 189.82 ], [ 5.227368577, 45.07229715, 193.28 ], [ 5.227686141, 45.072002305, 194.2 ], [ 5.227969831, 45.071759048, 194.03 ], [ 5.22827728, 45.071511071, 194.07 ], [ 5.228595341, 45.071228942, 194.36 ], [ 5.22882072, 45.071025032, 194.67 ], [ 5.229005401, 45.070851634, 194.8 ], [ 5.229209339, 45.07071073, 194.72 ], [ 5.229325102, 45.070610834, 194.5 ], [ 5.229375396, 45.070520734, 194.01 ], [ 5.229485682, 45.070433676, 193.86 ], [ 5.229654546, 45.070323078, 193.94 ], [ 5.229899955, 45.070162344, 193.68 ], [ 5.22992582, 45.070144069, 193.27 ], [ 5.230202757, 45.069948397, 193.03 ], [ 5.230470339, 45.069752123, 192.11 ], [ 5.230831944, 45.069511541, 191.1 ], [ 5.230984442, 45.06943212, 190.76 ], [ 5.231155054, 45.069356579, 190.75 ], [ 5.231243436, 45.069320869, 190.48 ], [ 5.231391132, 45.069271243, 190.33 ], [ 5.231579013, 45.069178385, 190.17 ], [ 5.231649093, 45.069135186, 189.45 ], [ 5.231742626, 45.069077528, 188.19 ], [ 5.231916175, 45.068925561, 187.2 ], [ 5.232064862, 45.068750757, 186.27 ], [ 5.232179094, 45.068612706, 185.39 ], [ 5.232205808, 45.068572008, 185.21 ], [ 5.232269396, 45.068475134, 185.38 ], [ 5.232318499, 45.068355358, 185.74 ], [ 5.232369631, 45.068286452, 185.64 ], [ 5.232568796, 45.068176396, 185.53 ], [ 5.232724561, 45.068029026, 185.49 ], [ 5.232826392, 45.067946092, 185.34 ], [ 5.232927506, 45.067863741, 185.23 ], [ 5.233107536, 45.067724369, 185.32 ], [ 5.233304836, 45.067567681, 185.83 ], [ 5.233480405, 45.067466582, 185.83 ], [ 5.233816644, 45.067341047, 186.04 ], [ 5.234043887, 45.067253346, 186.12 ], [ 5.234164506, 45.067206794, 185.67 ], [ 5.234235659, 45.067169134, 185.84 ], [ 5.234322805, 45.06712301, 185.39 ], [ 5.23452213, 45.06701719, 184.95 ], [ 5.234763498, 45.066914769, 185.05 ], [ 5.234999561, 45.066829424, 186.36 ], [ 5.23525972, 45.066747837, 185.34 ], [ 5.235354755, 45.06672896, 185.41 ], [ 5.235553939, 45.06676951, 185.44 ], [ 5.235617058, 45.066769195, 185.98 ], [ 5.235627847, 45.066769141, 185.07 ], [ 5.235835262, 45.066768107, 184.77 ], [ 5.236144971, 45.066727949, 184.42 ], [ 5.236366134, 45.066719266, 183.8 ], [ 5.236667099, 45.066759893, 182.23 ], [ 5.237010614, 45.066816633, 181.82 ], [ 5.237281669, 45.066857858, 181.52 ], [ 5.237553063, 45.06690756, 180.74 ], [ 5.237750809, 45.066912074, 179.47 ], [ 5.237910966, 45.066874916, 178.7 ], [ 5.238058312, 45.066816802, 177.98 ], [ 5.238223093, 45.06674561, 177.53 ], [ 5.238341037, 45.066700814, 177.3 ], [ 5.238478283, 45.066689571, 177.83 ], [ 5.238937709, 45.06665064, 177.72 ], [ 5.238971564, 45.066599048, 177.72 ], [ 5.238980983, 45.06653522, 178.09 ], [ 5.239001857, 45.066458434, 178.4 ], [ 5.239111272, 45.06635017, 178.69 ], [ 5.239204948, 45.066297376, 179.4 ], [ 5.23932272, 45.06624834, 179.76 ], [ 5.23958321, 45.066175222, 180.58 ], [ 5.239885232, 45.066092783, 181.72 ], [ 5.240008816, 45.066039387, 181.86 ], [ 5.240097696, 45.066016386, 181.97 ], [ 5.240259037, 45.066008899, 182.65 ], [ 5.240401924, 45.065989055, 183.12 ], [ 5.240590968, 45.065925857, 183.24 ], [ 5.240683622, 45.065847627, 185.59 ], [ 5.24069236, 45.065766842, 187.71 ], [ 5.240700589, 45.065673339, 189.09 ], [ 5.240859722, 45.065610741, 189.21 ], [ 5.240895462, 45.065531535, 189.98 ], [ 5.240993418, 45.065436228, 189.47 ], [ 5.241049839, 45.065350241, 188.88 ], [ 5.241121301, 45.065266073, 188.47 ], [ 5.241210434, 45.065249429, 188.29 ], [ 5.2416763, 45.065371576, 187.25 ], [ 5.242027324, 45.065466334, 186.4 ], [ 5.242258712, 45.065563498, 185.22 ], [ 5.242399948, 45.065651871, 184.08 ], [ 5.24248094, 45.06573085, 183.82 ], [ 5.242532025, 45.065810431, 179.04 ], [ 5.242585827, 45.065957838, 174.13 ], [ 5.243014991, 45.067137145, 169.44 ], [ 5.243035205, 45.067192688, 164.74 ], [ 5.243037917, 45.06720014, 161.48 ], [ 5.243103884, 45.067381404, 165.34 ], [ 5.243312447, 45.067954197, 171.94 ], [ 5.243433386, 45.068282683, 178.83 ], [ 5.243582164, 45.06870819, 185.67 ], [ 5.243723433, 45.069095663, 191.02 ], [ 5.243913242, 45.06949913, 193.98 ], [ 5.243984998, 45.069646175, 194.24 ], [ 5.243988653, 45.069662564, 194.31 ], [ 5.244069574, 45.069600955, 194.49 ], [ 5.244135633, 45.06952195, 194.56 ], [ 5.244153279, 45.069422459, 194.8 ], [ 5.244128348, 45.069304408, 194.77 ], [ 5.244060697, 45.06912794, 194.65 ], [ 5.244040615, 45.068926026, 194.48 ], [ 5.244048877, 45.068725508, 193.91 ], [ 5.244139023, 45.068599151, 192.99 ], [ 5.244491682, 45.068297339, 191.17 ], [ 5.24461867, 45.068219594, 190.72 ], [ 5.244810566, 45.068188696, 190.18 ], [ 5.244887472, 45.068221312, 189.41 ], [ 5.245283686, 45.068368089, 189.99 ], [ 5.245769182, 45.0684014, 191.75 ], [ 5.24628974, 45.068523425, 191.5 ], [ 5.246656616, 45.068556638, 191.34 ], [ 5.24732653, 45.068537637, 192.22 ], [ 5.248010781, 45.068777683, 191.64 ], [ 5.248588961, 45.06896328, 191.0 ], [ 5.24892819, 45.069117781, 191.43 ], [ 5.24961493, 45.069362951, 192.76 ], [ 5.250101624, 45.069640696, 194.35 ], [ 5.250451023, 45.069893772, 196.54 ], [ 5.250859616, 45.070146468, 198.97 ], [ 5.251144233, 45.070318537, 201.16 ], [ 5.251729798, 45.070465257, 202.48 ], [ 5.25279649, 45.070768086, 202.36 ], [ 5.254038342, 45.071122741, 202.21 ], [ 5.255152832, 45.071430019, 201.63 ], [ 5.256808159, 45.071865148, 200.97 ], [ 5.256920949, 45.071906438, 199.38 ], [ 5.257219621, 45.072056904, 199.0 ], [ 5.257865766, 45.072405454, 198.63 ], [ 5.258208575, 45.072916031, 198.25 ], [ 5.2589683, 45.073470292, 197.56 ], [ 5.259026768, 45.073575575, 197.72 ], [ 5.259627651, 45.073893248, 197.61 ], [ 5.259786166, 45.074009347, 197.14 ], [ 5.260650599, 45.074778233, 196.97 ], [ 5.261077909, 45.075122765, 196.94 ], [ 5.261924474, 45.07579269, 196.98 ], [ 5.262265861, 45.07596028, 197.19 ], [ 5.262616396, 45.076141393, 197.51 ], [ 5.262988721, 45.076539411, 197.81 ], [ 5.263016815, 45.076621162, 198.08 ], [ 5.263093343, 45.077130171, 198.43 ], [ 5.263227359, 45.077547933, 198.62 ], [ 5.263544999, 45.078196003, 198.79 ], [ 5.263628543, 45.078426094, 198.62 ], [ 5.263917117, 45.078770669, 198.19 ], [ 5.264058502, 45.07901037, 197.39 ], [ 5.264098334, 45.079148921, 196.71 ], [ 5.264193176, 45.079313869, 195.77 ], [ 5.264345464, 45.079401877, 195.02 ], [ 5.26465527, 45.07957312, 194.64 ], [ 5.264767307, 45.07964606, 194.75 ], [ 5.264975003, 45.079849001, 195.24 ], [ 5.265749997, 45.080724001, 195.69 ], [ 5.266073133, 45.080986292, 195.89 ], [ 5.266673128, 45.081723214, 195.47 ], [ 5.266972738, 45.082062869, 193.97 ], [ 5.267247704, 45.082367602, 192.04 ], [ 5.267380402, 45.08269833, 191.12 ], [ 5.267414059, 45.08295281, 190.31 ], [ 5.267367419, 45.08331436, 191.36 ], [ 5.267432002, 45.08351, 192.74 ], [ 5.267546533, 45.083738788, 193.5 ], [ 5.267625517, 45.083890847, 193.95 ], [ 5.267851998, 45.084368998, 194.17 ], [ 5.268029786, 45.084680865, 193.62 ], [ 5.268604, 45.085616, 193.87 ], [ 5.268772962, 45.085918724, 193.44 ], [ 5.269067002, 45.086499003, 193.73 ], [ 5.269115424, 45.086864986, 194.39 ], [ 5.269232502, 45.087287382, 194.72 ], [ 5.269268003, 45.087701001, 194.58 ], [ 5.269370134, 45.087984701, 194.68 ], [ 5.269477999, 45.088323, 194.47 ], [ 5.269422376, 45.08857808, 194.12 ], [ 5.269378998, 45.088777003, 194.42 ], [ 5.269352004, 45.089118, 195.05 ], [ 5.269337718, 45.089847248, 195.07 ], [ 5.269277714, 45.090081562, 195.68 ], [ 5.269170757, 45.09046242, 196.17 ], [ 5.269182979, 45.090918881, 196.3 ], [ 5.269092905, 45.091969964, 196.16 ], [ 5.269092003, 45.092289001, 198.4 ], [ 5.269050722, 45.09273585, 198.93 ], [ 5.268943997, 45.093069003, 199.84 ], [ 5.268813035, 45.093303027, 198.86 ], [ 5.268727325, 45.093492112, 198.79 ], [ 5.268619085, 45.093793996, 196.94 ], [ 5.268553451, 45.094076295, 195.27 ], [ 5.268582885, 45.094801776, 193.46 ], [ 5.268840828, 45.095659259, 191.65 ], [ 5.269238336, 45.097053383, 188.77 ], [ 5.269477488, 45.097695565, 187.12 ], [ 5.269471236, 45.098026779, 184.87 ], [ 5.269787998, 45.098451002, 183.72 ], [ 5.269846716, 45.098676542, 184.25 ], [ 5.270119163, 45.099701583, 185.54 ], [ 5.270120786, 45.099909585, 186.97 ], [ 5.270139999, 45.100023999, 187.91 ], [ 5.270103537, 45.100138607, 188.89 ], [ 5.270016086, 45.100316443, 188.11 ], [ 5.269701564, 45.100619472, 187.68 ], [ 5.269656298, 45.100731554, 186.14 ], [ 5.269659502, 45.100890893, 186.78 ], [ 5.269757623, 45.101340124, 185.01 ], [ 5.269695962, 45.101495225, 184.6 ], [ 5.269474781, 45.101943164, 183.77 ], [ 5.26952208, 45.102211119, 184.14 ], [ 5.269500901, 45.102357535, 183.12 ], [ 5.269468052, 45.102636453, 183.22 ], [ 5.269528228, 45.102820727, 184.06 ], [ 5.269570998, 45.102977091, 183.59 ], [ 5.269737761, 45.103152609, 184.16 ], [ 5.269939886, 45.103359237, 182.64 ], [ 5.27008205, 45.10373305, 182.24 ], [ 5.270338064, 45.104138128, 180.43 ], [ 5.2703856, 45.104774333, 179.51 ], [ 5.270426041, 45.105350314, 177.26 ], [ 5.270576002, 45.105629003, 176.43 ], [ 5.270646045, 45.105691586, 174.98 ], [ 5.270797055, 45.105822421, 173.86 ], [ 5.270985567, 45.106037008, 173.03 ], [ 5.271232002, 45.106448001, 170.83 ], [ 5.271476623, 45.106742465, 169.43 ], [ 5.271671988, 45.106947227, 167.42 ], [ 5.272662079, 45.108025225, 165.56 ], [ 5.272999286, 45.108417888, 163.78 ], [ 5.273678173, 45.108865048, 162.91 ], [ 5.274226076, 45.109111815, 162.73 ], [ 5.274735213, 45.109339065, 163.6 ], [ 5.275900176, 45.109684092, 165.04 ], [ 5.276470227, 45.109884296, 166.35 ], [ 5.276565186, 45.109989376, 167.21 ], [ 5.27673989, 45.110099878, 168.41 ], [ 5.277082946, 45.110308446, 168.66 ], [ 5.277399848, 45.11048872, 168.12 ], [ 5.277559767, 45.110568019, 167.36 ], [ 5.277711153, 45.110620719, 167.72 ], [ 5.277973805, 45.110685948, 167.89 ], [ 5.278139559, 45.110736283, 169.11 ], [ 5.278315489, 45.110813082, 170.35 ], [ 5.278602894, 45.110985945, 170.59 ], [ 5.27889765, 45.111189491, 171.28 ], [ 5.279048633, 45.111318527, 172.04 ], [ 5.279114572, 45.111382764, 172.96 ], [ 5.279148224, 45.111439663, 173.55 ], [ 5.279166682, 45.111512351, 176.41 ], [ 5.279154343, 45.111610709, 177.81 ], [ 5.279213942, 45.111746634, 175.25 ], [ 5.279270492, 45.111706655, 172.18 ], [ 5.279783283, 45.111380172, 170.81 ], [ 5.280070759, 45.111207453, 169.1 ], [ 5.280161541, 45.111152909, 172.43 ], [ 5.280306737, 45.111064324, 179.87 ], [ 5.280994735, 45.110612228, 186.77 ], [ 5.281104225, 45.110519303, 192.98 ], [ 5.281161035, 45.110391774, 198.66 ], [ 5.281155801, 45.110292895, 199.73 ], [ 5.28109837, 45.110168401, 199.89 ], [ 5.280990154, 45.110045249, 200.37 ], [ 5.279872958, 45.109111716, 200.65 ], [ 5.278717253, 45.108170194, 200.51 ], [ 5.277637269, 45.107217655, 200.56 ], [ 5.276906567, 45.106620814, 200.92 ], [ 5.277136374, 45.106602489, 200.99 ], [ 5.277459641, 45.106623875, 202.99 ], [ 5.279236967, 45.106787819, 205.28 ], [ 5.285985744, 45.107323144, 207.41 ], [ 5.286882711, 45.106883183, 209.6 ], [ 5.287635326, 45.106372205, 212.1 ], [ 5.288290396, 45.105940204, 212.6 ], [ 5.288882391, 45.105524977, 212.63 ], [ 5.28921426, 45.105359005, 212.81 ], [ 5.289456468, 45.105189385, 213.43 ], [ 5.289655701, 45.105058516, 213.73 ], [ 5.290032374, 45.104870217, 213.97 ], [ 5.29052317, 45.104668046, 213.78 ], [ 5.291012947, 45.104346526, 213.6 ], [ 5.291860679, 45.103777537, 212.97 ], [ 5.29232842, 45.103561563, 212.21 ], [ 5.292644903, 45.103379981, 211.46 ], [ 5.292927, 45.103238003, 211.06 ], [ 5.293251003, 45.103184004, 211.0 ], [ 5.293504871, 45.103162298, 210.36 ], [ 5.293658123, 45.10316211, 210.13 ], [ 5.293990979, 45.103153065, 210.26 ], [ 5.294227012, 45.103126254, 210.72 ], [ 5.294662668, 45.103001534, 210.96 ], [ 5.295160177, 45.102902883, 211.42 ], [ 5.295536792, 45.102850667, 211.61 ], [ 5.296163095, 45.102920556, 211.5 ], [ 5.296360418, 45.10294649, 211.37 ], [ 5.296565053, 45.103004291, 211.15 ], [ 5.296850784, 45.103112009, 210.96 ], [ 5.297182997, 45.103249003, 210.83 ], [ 5.297323999, 45.103278001, 210.83 ], [ 5.297466998, 45.103275, 211.42 ], [ 5.297609002, 45.103240001, 212.19 ], [ 5.298343978, 45.102948956, 213.4 ], [ 5.299395998, 45.102543002, 214.45 ], [ 5.299974228, 45.102368439, 215.82 ], [ 5.300153998, 45.102309003, 216.52 ], [ 5.300397053, 45.102210709, 216.8 ], [ 5.300535848, 45.102344501, 216.68 ], [ 5.300990371, 45.102768687, 216.74 ], [ 5.3012582, 45.103024945, 216.74 ], [ 5.301517998, 45.103202001, 216.78 ], [ 5.303114999, 45.104283003, 217.11 ], [ 5.304113976, 45.104926339, 217.28 ], [ 5.304763997, 45.105364001, 217.35 ], [ 5.305514003, 45.105594, 217.16 ], [ 5.305810998, 45.105715002, 216.83 ], [ 5.306105002, 45.10589, 217.07 ], [ 5.307012683, 45.106489322, 217.66 ], [ 5.308174792, 45.107230777, 218.18 ], [ 5.308447547, 45.107405008, 218.33 ], [ 5.309090999, 45.107780999, 218.42 ], [ 5.309388002, 45.107920001, 218.03 ], [ 5.313684687, 45.108963383, 217.66 ], [ 5.315930771, 45.109458426, 217.59 ], [ 5.318146479, 45.109972714, 217.49 ], [ 5.318303124, 45.110086905, 217.57 ], [ 5.318350171, 45.110230817, 217.49 ], [ 5.318340721, 45.110563601, 217.23 ], [ 5.318383437, 45.110771266, 216.88 ], [ 5.318464562, 45.110821169, 216.88 ], [ 5.31858351, 45.110883209, 217.38 ], [ 5.31880775, 45.110930673, 217.56 ], [ 5.319511457, 45.11094976, 217.76 ], [ 5.319677938, 45.110926876, 217.94 ], [ 5.319796019, 45.110885581, 218.06 ], [ 5.319991422, 45.110767869, 217.69 ], [ 5.320062519, 45.110996017, 217.75 ], [ 5.320186274, 45.111217493, 217.18 ], [ 5.322976542, 45.113970649, 216.43 ], [ 5.32731418, 45.11716006, 215.64 ], [ 5.327315018, 45.117412088, 214.89 ], [ 5.327297364, 45.117556597, 213.48 ], [ 5.327205069, 45.118441256, 212.25 ], [ 5.327034761, 45.12000316, 210.92 ], [ 5.326917554, 45.120897495, 209.52 ], [ 5.326919841, 45.12117649, 207.88 ], [ 5.326957317, 45.12140053, 206.29 ], [ 5.327030461, 45.121578593, 205.3 ], [ 5.327157783, 45.12181821, 204.42 ], [ 5.327294412, 45.121994564, 203.53 ], [ 5.327481836, 45.12216955, 202.86 ], [ 5.327653654, 45.122290948, 202.66 ], [ 5.327942655, 45.122463197, 200.46 ], [ 5.328098882, 45.122530997, 197.94 ], [ 5.329907743, 45.123301396, 195.38 ], [ 5.330377412, 45.123522775, 192.91 ], [ 5.330508251, 45.12359126, 190.43 ], [ 5.330587821, 45.12365213, 189.2 ], [ 5.330628337, 45.123696045, 188.44 ], [ 5.330670297, 45.123766927, 187.8 ], [ 5.330684929, 45.123802542, 186.9 ], [ 5.330700532, 45.123856128, 185.72 ], [ 5.330704401, 45.123928039, 181.74 ], [ 5.330683847, 45.124018615, 177.83 ], [ 5.330218316, 45.124714879, 174.01 ], [ 5.330140215, 45.124831688, 170.96 ], [ 5.330095436, 45.12489866, 168.89 ], [ 5.329669781, 45.125495258, 169.14 ], [ 5.329622215, 45.125565539, 171.5 ], [ 5.329572921, 45.125610475, 172.88 ], [ 5.329802101, 45.125724607, 172.38 ], [ 5.330564853, 45.125860869, 173.26 ], [ 5.330868987, 45.125940679, 173.63 ], [ 5.331875044, 45.126250589, 172.34 ], [ 5.33260615, 45.126566791, 173.54 ], [ 5.333105221, 45.126877416, 177.67 ], [ 5.333403596, 45.127153272, 181.56 ], [ 5.333744365, 45.127608805, 187.64 ], [ 5.333873, 45.127826001, 195.01 ], [ 5.33404278, 45.12803394, 200.31 ], [ 5.334298834, 45.128205852, 203.26 ], [ 5.334446351, 45.128285089, 204.3 ], [ 5.334597279, 45.128334617, 205.16 ], [ 5.334890762, 45.128381709, 205.07 ], [ 5.335143997, 45.128467513, 207.44 ], [ 5.335431298, 45.128663466, 210.15 ], [ 5.335688603, 45.128892976, 212.13 ], [ 5.336873024, 45.128914539, 214.7 ], [ 5.337749074, 45.128950237, 217.14 ], [ 5.338040912, 45.128977751, 217.69 ], [ 5.338529515, 45.129093036, 218.09 ], [ 5.338984568, 45.129280945, 219.04 ], [ 5.339904417, 45.129699192, 219.06 ], [ 5.340658093, 45.130126283, 218.54 ], [ 5.340859038, 45.130296045, 217.98 ], [ 5.341070308, 45.130471627, 218.25 ], [ 5.341276494, 45.130636888, 218.73 ], [ 5.341412454, 45.13084698, 219.03 ], [ 5.34153229, 45.13094984, 219.21 ], [ 5.341687066, 45.131016841, 219.3 ], [ 5.34196374, 45.131121844, 219.1 ], [ 5.342098651, 45.131161871, 218.95 ], [ 5.342614777, 45.131377698, 218.79 ], [ 5.343101817, 45.131546934, 219.09 ], [ 5.343660298, 45.131737169, 219.41 ], [ 5.344172908, 45.131905864, 219.95 ], [ 5.344383896, 45.131852583, 220.1 ], [ 5.344709291, 45.131864951, 220.38 ], [ 5.345420582, 45.131964151, 220.5 ], [ 5.34561637, 45.132065958, 220.68 ], [ 5.345751698, 45.132297464, 220.35 ], [ 5.346050703, 45.13282289, 220.52 ], [ 5.346172581, 45.132921964, 220.17 ], [ 5.346303052, 45.132982335, 219.84 ], [ 5.346600426, 45.133195063, 219.34 ], [ 5.346866523, 45.13331844, 219.04 ], [ 5.347510001, 45.133488001, 218.46 ], [ 5.348087231, 45.133800685, 218.28 ], [ 5.348660048, 45.134094878, 217.95 ], [ 5.349207666, 45.134671146, 217.86 ], [ 5.349450834, 45.134848237, 217.69 ], [ 5.350936185, 45.135928909, 217.65 ], [ 5.351097059, 45.136048291, 217.61 ], [ 5.351698072, 45.136490737, 217.51 ], [ 5.352019205, 45.13678802, 217.54 ], [ 5.352710693, 45.137446308, 219.43 ], [ 5.352116052, 45.137799128, 221.31 ], [ 5.351414934, 45.13816506, 223.72 ], [ 5.351173859, 45.138406522, 226.66 ], [ 5.350789209, 45.138498053, 230.39 ], [ 5.350319542, 45.138577928, 233.36 ], [ 5.34943711, 45.138652501, 236.48 ], [ 5.348202857, 45.139842617, 239.41 ], [ 5.347756997, 45.140249003, 242.21 ], [ 5.34721648, 45.140689331, 244.17 ], [ 5.34664303, 45.141142111, 245.27 ], [ 5.346781725, 45.141280358, 246.14 ], [ 5.346885732, 45.141420744, 246.76 ], [ 5.347626748, 45.142480327, 246.93 ], [ 5.347873465, 45.142778091, 247.15 ], [ 5.348048163, 45.142938773, 247.66 ], [ 5.348845075, 45.143605586, 248.41 ], [ 5.350172692, 45.144746642, 249.3 ], [ 5.351153387, 45.145604114, 250.15 ], [ 5.352161793, 45.14656637, 250.48 ], [ 5.352345485, 45.146729343, 250.4 ], [ 5.352879955, 45.14726581, 250.32 ], [ 5.353675401, 45.147811038, 250.13 ], [ 5.35393025, 45.148042758, 249.71 ], [ 5.354608199, 45.148891223, 249.63 ], [ 5.355178937, 45.149403864, 249.69 ], [ 5.356017644, 45.150385039, 248.95 ], [ 5.356665083, 45.151174824, 248.83 ], [ 5.356947747, 45.151540891, 248.02 ], [ 5.357119022, 45.15173876, 246.87 ], [ 5.357336618, 45.151661705, 245.03 ], [ 5.357499314, 45.151612266, 243.19 ], [ 5.357637096, 45.151572509, 240.22 ], [ 5.357788555, 45.151550386, 237.72 ], [ 5.357941974, 45.151564217, 235.46 ], [ 5.358057276, 45.151579081, 233.85 ], [ 5.35814816, 45.151612621, 232.89 ], [ 5.358226819, 45.151655489, 232.45 ], [ 5.358319162, 45.15171599, 232.48 ], [ 5.358386099, 45.15177718, 230.82 ], [ 5.358440819, 45.151847708, 229.19 ], [ 5.358735929, 45.152361796, 227.91 ], [ 5.358893258, 45.152681588, 226.96 ], [ 5.359048149, 45.152956437, 225.87 ], [ 5.359170791, 45.153106137, 226.17 ], [ 5.359292453, 45.153237853, 225.48 ], [ 5.359452714, 45.153377526, 223.52 ], [ 5.360145573, 45.153952796, 221.51 ], [ 5.360799834, 45.154520112, 219.61 ], [ 5.361038782, 45.154702648, 217.75 ], [ 5.361303612, 45.154893478, 215.74 ], [ 5.361606563, 45.155083274, 214.86 ], [ 5.361829868, 45.155212226, 213.75 ], [ 5.361933951, 45.155254396, 212.76 ], [ 5.361986228, 45.155279979, 211.42 ], [ 5.362121269, 45.155296799, 211.46 ], [ 5.362197551, 45.15541801, 211.49 ], [ 5.362239885, 45.15549783, 211.48 ], [ 5.362598965, 45.156028909, 211.4 ], [ 5.362724201, 45.156223449, 211.74 ], [ 5.362862027, 45.15640862, 211.21 ], [ 5.362996938, 45.156558089, 211.34 ], [ 5.36313107, 45.156689111, 211.22 ], [ 5.36374625, 45.15723008, 211.15 ], [ 5.363920864, 45.157396991, 211.49 ], [ 5.364016748, 45.157511526, 212.54 ], [ 5.364101036, 45.15766198, 210.96 ], [ 5.364174376, 45.157857704, 210.48 ], [ 5.364427435, 45.158478855, 210.27 ], [ 5.364617376, 45.158767148, 209.7 ], [ 5.364924812, 45.159033578, 208.67 ], [ 5.365216677, 45.159238901, 208.26 ], [ 5.365496245, 45.159394489, 207.34 ], [ 5.365992789, 45.159691591, 206.08 ], [ 5.366231086, 45.159825535, 204.89 ], [ 5.366830739, 45.160341232, 204.14 ], [ 5.367063939, 45.16053567, 204.69 ], [ 5.367086714, 45.16055466, 204.36 ], [ 5.367115315, 45.160578507, 204.39 ], [ 5.36726306, 45.160690859, 205.14 ], [ 5.367356029, 45.160805362, 204.41 ], [ 5.367539034, 45.161031457, 204.69 ], [ 5.367748422, 45.16126717, 205.1 ], [ 5.36804562, 45.161633979, 205.14 ], [ 5.368209872, 45.161895155, 203.97 ], [ 5.368394441, 45.162058881, 204.61 ], [ 5.368635849, 45.162232659, 203.36 ], [ 5.368835463, 45.162339849, 201.95 ], [ 5.369069393, 45.162508564, 202.0 ], [ 5.369214354, 45.162620967, 202.57 ], [ 5.369333904, 45.162713555, 202.34 ], [ 5.369821431, 45.163070108, 202.17 ], [ 5.370246622, 45.163319702, 202.64 ], [ 5.370625192, 45.163556951, 201.6 ], [ 5.370734124, 45.163639401, 200.73 ], [ 5.371090425, 45.163864874, 201.4 ], [ 5.371181198, 45.163927356, 202.4 ], [ 5.371490973, 45.164145617, 203.27 ], [ 5.373810887, 45.165325906, 203.94 ], [ 5.373997076, 45.165425179, 204.74 ], [ 5.374190371, 45.165553935, 204.56 ], [ 5.374517158, 45.165797321, 203.95 ], [ 5.374889969, 45.16600306, 205.19 ], [ 5.375477048, 45.166354407, 205.31 ], [ 5.376445807, 45.167185142, 206.62 ], [ 5.376715574, 45.167344971, 207.6 ], [ 5.377125091, 45.167595863, 209.59 ], [ 5.377621166, 45.167845904, 210.2 ], [ 5.377993169, 45.168064892, 212.22 ], [ 5.37834144, 45.168339607, 213.21 ], [ 5.378641251, 45.168591751, 214.19 ], [ 5.378965711, 45.16888436, 215.06 ], [ 5.379087689, 45.168964547, 215.3 ], [ 5.379303382, 45.169110205, 215.35 ], [ 5.379601305, 45.169252035, 215.15 ], [ 5.380058666, 45.16940578, 215.07 ], [ 5.380773905, 45.169610326, 214.77 ], [ 5.381059263, 45.169693149, 214.82 ], [ 5.381215808, 45.169738815, 215.09 ], [ 5.381536597, 45.169876098, 215.17 ], [ 5.381745482, 45.169996407, 215.32 ], [ 5.382094611, 45.170254695, 215.65 ], [ 5.382351337, 45.170481178, 215.56 ], [ 5.382537619, 45.17071637, 215.52 ], [ 5.382636259, 45.170962621, 216.18 ], [ 5.3826732, 45.171150914, 216.99 ], [ 5.382643788, 45.171545021, 218.13 ], [ 5.382618381, 45.171692762, 218.0 ], [ 5.382576135, 45.172024803, 217.26 ], [ 5.382506032, 45.172480137, 216.38 ], [ 5.382489879, 45.172710462, 215.64 ], [ 5.382486953, 45.172746289, 214.77 ], [ 5.382494481, 45.172955656, 215.88 ], [ 5.382473253, 45.173237167, 217.49 ], [ 5.382462853, 45.173602314, 219.67 ], [ 5.382508489, 45.173859875, 220.34 ], [ 5.382579435, 45.173997451, 220.72 ], [ 5.382624962, 45.174082326, 220.99 ], [ 5.382818287, 45.174380697, 221.22 ], [ 5.383040985, 45.174653935, 220.35 ], [ 5.383262074, 45.174856672, 220.42 ], [ 5.383510172, 45.17508343, 220.26 ], [ 5.38361207, 45.175170165, 219.94 ], [ 5.383793795, 45.175330864, 219.51 ], [ 5.384056499, 45.175493887, 219.29 ], [ 5.384277642, 45.175697702, 219.66 ], [ 5.384414227, 45.175851166, 220.92 ], [ 5.384509166, 45.176007503, 222.44 ], [ 5.38462582, 45.176338226, 223.39 ], [ 5.384768033, 45.176688855, 225.31 ], [ 5.384808223, 45.176854555, 226.86 ], [ 5.384804499, 45.177002822, 227.96 ], [ 5.384768169, 45.177133409, 228.12 ], [ 5.38464457, 45.177317024, 228.06 ], [ 5.384488977, 45.177565642, 226.37 ], [ 5.384434032, 45.177767161, 225.21 ], [ 5.384433452, 45.177923555, 224.37 ], [ 5.384497046, 45.178228749, 223.92 ], [ 5.384535362, 45.178380258, 224.73 ], [ 5.384535347, 45.178549888, 225.02 ], [ 5.384507411, 45.178674166, 227.13 ], [ 5.384434952, 45.178772825, 228.95 ], [ 5.384350858, 45.178867673, 229.09 ], [ 5.384329006, 45.178895705, 229.82 ], [ 5.384216068, 45.179060629, 230.37 ], [ 5.384160506, 45.179179374, 229.64 ], [ 5.384123523, 45.179363121, 229.41 ], [ 5.384129104, 45.179493802, 229.04 ], [ 5.38413137, 45.179582665, 228.79 ], [ 5.384121838, 45.179663673, 228.83 ], [ 5.384072436, 45.179792463, 227.55 ], [ 5.384058697, 45.179944998, 226.26 ], [ 5.384068029, 45.180163521, 227.76 ], [ 5.38411223, 45.18048561, 230.04 ], [ 5.384239783, 45.181104277, 233.6 ], [ 5.384347018, 45.181754095, 237.81 ], [ 5.384377878, 45.182205198, 240.12 ], [ 5.384347099, 45.182770047, 240.9 ], [ 5.384364919, 45.18295163, 240.04 ], [ 5.384412104, 45.183143763, 238.86 ], [ 5.384603365, 45.18349127, 236.61 ], [ 5.384659965, 45.183566719, 236.14 ], [ 5.384894645, 45.183782498, 236.01 ], [ 5.385051006, 45.18392428, 235.74 ], [ 5.385195006, 45.18408065, 235.71 ], [ 5.385358054, 45.184342911, 236.53 ], [ 5.385485393, 45.1845835, 237.03 ], [ 5.385571263, 45.184801377, 238.01 ], [ 5.385665262, 45.185006832, 238.95 ], [ 5.385869223, 45.185314247, 239.63 ], [ 5.386252707, 45.185932578, 240.57 ], [ 5.387070152, 45.187270397, 241.49 ], [ 5.387260187, 45.187627115, 242.83 ], [ 5.387947461, 45.188994283, 244.13 ], [ 5.388643304, 45.190325506, 245.6 ], [ 5.388699078, 45.190414219, 246.58 ], [ 5.388766782, 45.190475197, 247.22 ], [ 5.388872039, 45.190535281, 247.43 ], [ 5.388987216, 45.190559392, 247.65 ], [ 5.389369268, 45.190631969, 247.85 ], [ 5.389383172, 45.19063461, 248.44 ], [ 5.389567255, 45.190669579, 249.0 ], [ 5.389658215, 45.190702402, 249.29 ], [ 5.389723653, 45.190745955, 250.16 ], [ 5.389797616, 45.190785341, 250.98 ], [ 5.389977374, 45.191104217, 251.32 ], [ 5.390079119, 45.191305113, 251.75 ], [ 5.390302734, 45.191560481, 252.35 ], [ 5.390458674, 45.191685573, 252.5 ], [ 5.390584066, 45.191786072, 252.41 ], [ 5.390795184, 45.191967062, 252.7 ], [ 5.390917123, 45.192081824, 254.24 ], [ 5.39105089, 45.192203636, 255.68 ], [ 5.391714159, 45.192905951, 256.6 ], [ 5.391861428, 45.193036656, 257.58 ], [ 5.39233885, 45.193347558, 258.31 ], [ 5.392417423, 45.193227154, 257.82 ], [ 5.392541102, 45.193245972, 257.46 ], [ 5.392600313, 45.19327843, 257.26 ], [ 5.39271747, 45.193381193, 257.16 ], [ 5.392856024, 45.193511099, 256.89 ], [ 5.393007626, 45.193574282, 256.63 ], [ 5.393200885, 45.19363147, 255.78 ], [ 5.393561985, 45.193658478, 255.27 ], [ 5.394053107, 45.193683723, 254.39 ], [ 5.394291136, 45.193739943, 253.71 ], [ 5.39449661, 45.193845923, 253.18 ], [ 5.394601126, 45.193990864, 253.28 ], [ 5.394640832, 45.194141282, 253.19 ], [ 5.394662281, 45.194270628, 253.26 ], [ 5.394730903, 45.194354185, 253.06 ], [ 5.394858654, 45.194364617, 252.62 ], [ 5.395419782, 45.194035649, 251.98 ], [ 5.395511815, 45.193992753, 252.09 ], [ 5.3955923, 45.194047275, 252.55 ], [ 5.396462664, 45.194925999, 252.84 ], [ 5.396905973, 45.195367342, 253.21 ], [ 5.397259018, 45.195454164, 253.99 ], [ 5.397492664, 45.195652771, 254.19 ], [ 5.397587278, 45.196337354, 254.15 ], [ 5.397603553, 45.196511291, 254.65 ], [ 5.397449165, 45.196646031, 255.07 ], [ 5.397002996, 45.196874999, 255.34 ], [ 5.397052001, 45.197068003, 255.57 ], [ 5.397554686, 45.197611333, 256.91 ], [ 5.397793825, 45.197869804, 258.8 ], [ 5.401101148, 45.201353388, 260.86 ], [ 5.402929937, 45.203242336, 262.73 ], [ 5.403090775, 45.203335727, 263.88 ], [ 5.403087999, 45.203407003, 264.59 ], [ 5.402809511, 45.203546797, 265.19 ], [ 5.402412997, 45.203910002, 266.08 ], [ 5.401647117, 45.204481622, 266.76 ], [ 5.401339, 45.204833002, 267.51 ], [ 5.401441996, 45.204899998, 267.42 ], [ 5.401568998, 45.204909001, 266.8 ], [ 5.401965, 45.204737003, 266.05 ], [ 5.402578998, 45.205171, 265.11 ], [ 5.402884003, 45.205443002, 264.84 ], [ 5.402508003, 45.205705999, 264.22 ], [ 5.402371311, 45.206154229, 263.45 ], [ 5.402662078, 45.206330814, 262.66 ], [ 5.402678311, 45.206720628, 262.35 ], [ 5.402736578, 45.207064055, 262.73 ], [ 5.402751495, 45.207626859, 263.69 ], [ 5.402815124, 45.207734164, 264.66 ], [ 5.402846537, 45.207778494, 265.06 ], [ 5.402907751, 45.207793642, 265.14 ], [ 5.403069986, 45.207742039, 265.05 ], [ 5.40342052, 45.207548795, 265.41 ], [ 5.403704871, 45.207408754, 266.89 ], [ 5.404182218, 45.20774755, 269.3 ], [ 5.404931358, 45.208303326, 272.11 ], [ 5.403851987, 45.208912012, 274.74 ], [ 5.404075316, 45.209027812, 276.79 ], [ 5.40443682, 45.209263288, 277.49 ], [ 5.405086688, 45.209848247, 276.5 ], [ 5.40520112, 45.209896332, 274.22 ], [ 5.406643002, 45.208785999, 271.51 ], [ 5.409688863, 45.210754596, 268.75 ], [ 5.410369476, 45.211159783, 266.35 ], [ 5.410524844, 45.210950367, 264.53 ], [ 5.410908989, 45.210689293, 264.64 ], [ 5.410908989, 45.210689293, 264.64 ], [ 5.41113343, 45.21072616, 263.83 ], [ 5.412262642, 45.2106414, 264.1 ], [ 5.413100925, 45.210634266, 263.72 ], [ 5.414450001, 45.210629999, 263.39 ], [ 5.414991998, 45.210577001, 262.94 ], [ 5.415678999, 45.210804002, 262.1 ], [ 5.41610055, 45.210905278, 261.21 ], [ 5.416832002, 45.211081003, 260.88 ], [ 5.41747008, 45.211301121, 260.83 ], [ 5.417935996, 45.211551999, 261.08 ], [ 5.418549497, 45.212014782, 261.13 ], [ 5.418747272, 45.21206319, 260.86 ], [ 5.419656999, 45.211867999, 260.41 ], [ 5.419964999, 45.211833002, 259.65 ], [ 5.420256061, 45.211831814, 258.73 ], [ 5.420501, 45.21186, 257.51 ], [ 5.422404428, 45.212099738, 257.0 ], [ 5.423147292, 45.212390252, 256.32 ], [ 5.423639999, 45.212016999, 255.58 ], [ 5.423795001, 45.211741002, 254.8 ], [ 5.423860695, 45.211604974, 255.05 ], [ 5.425472459, 45.212071321, 254.9 ], [ 5.428686301, 45.212979551, 254.93 ], [ 5.428936271, 45.212974115, 254.89 ], [ 5.429193866, 45.213043867, 254.87 ], [ 5.431485221, 45.210467343, 254.53 ], [ 5.434457534, 45.209690173, 253.9 ], [ 5.434800144, 45.209489525, 252.8 ], [ 5.435074833, 45.209190185, 251.98 ], [ 5.436032672, 45.207382639, 251.13 ], [ 5.436496049, 45.206802189, 249.44 ], [ 5.437324804, 45.205914281, 246.64 ], [ 5.438203714, 45.205843983, 243.88 ], [ 5.439393369, 45.205142384, 241.17 ], [ 5.440076984, 45.204904628, 238.85 ], [ 5.440025441, 45.204784118, 236.73 ], [ 5.439601694, 45.204384529, 236.05 ], [ 5.439088604, 45.203826424, 235.96 ], [ 5.438851921, 45.203505537, 235.19 ], [ 5.438722393, 45.203253883, 234.71 ], [ 5.439401613, 45.203181752, 235.05 ], [ 5.440162674, 45.203060896, 235.28 ], [ 5.44043528, 45.203015119, 235.35 ], [ 5.440566691, 45.203010177, 236.01 ], [ 5.440637699, 45.203013759, 236.34 ], [ 5.440771228, 45.203025072, 236.49 ], [ 5.440918767, 45.203045005, 236.64 ], [ 5.440986447, 45.203054149, 236.95 ], [ 5.441028225, 45.203063129, 237.18 ], [ 5.441379049, 45.203138534, 237.38 ], [ 5.44173607, 45.203233964, 237.7 ], [ 5.442280226, 45.203380525, 237.93 ], [ 5.443388968, 45.203770208, 237.79 ], [ 5.444282641, 45.203875328, 237.51 ], [ 5.444994302, 45.203979379, 236.98 ], [ 5.445208367, 45.20398181, 236.42 ], [ 5.445370172, 45.203978266, 235.72 ], [ 5.445523872, 45.203955528, 235.27 ], [ 5.445799668, 45.203915706, 234.89 ], [ 5.446122537, 45.20385963, 234.4 ], [ 5.446564429, 45.203780401, 233.8 ], [ 5.447012052, 45.203701137, 233.27 ], [ 5.447304356, 45.203642571, 232.62 ], [ 5.447733903, 45.203511541, 232.06 ], [ 5.447846809, 45.203482488, 231.66 ], [ 5.447910974, 45.203463699, 231.32 ], [ 5.448103852, 45.20341037, 231.19 ], [ 5.448455378, 45.203380231, 231.05 ], [ 5.448777189, 45.203401735, 230.67 ], [ 5.449106058, 45.20344767, 230.37 ], [ 5.449612183, 45.203583766, 229.89 ], [ 5.449810408, 45.203617253, 229.41 ], [ 5.450077303, 45.203638963, 228.96 ], [ 5.450320671, 45.203650022, 228.89 ], [ 5.450550729, 45.203654162, 228.68 ], [ 5.450874156, 45.203674629, 228.45 ], [ 5.451372868, 45.203740342, 228.19 ], [ 5.451743499, 45.203750674, 228.04 ], [ 5.451798551, 45.203753519, 227.97 ], [ 5.451973921, 45.203762911, 228.07 ], [ 5.452254211, 45.203758826, 228.53 ], [ 5.452875066, 45.203805548, 228.97 ], [ 5.453062115, 45.203816751, 229.34 ], [ 5.453098628, 45.203824149, 229.57 ], [ 5.45325903, 45.203855304, 229.91 ], [ 5.453704855, 45.203967124, 230.15 ], [ 5.454391569, 45.204294446, 230.38 ], [ 5.454533532, 45.204366998, 230.49 ], [ 5.454895889, 45.204551184, 229.36 ], [ 5.455094197, 45.204653127, 228.17 ], [ 5.455569086, 45.20493294, 227.62 ], [ 5.455641172, 45.204992703, 226.6 ], [ 5.455782047, 45.205107167, 225.42 ], [ 5.455947534, 45.205219019, 225.56 ], [ 5.456280962, 45.205402843, 225.7 ], [ 5.45680171, 45.205736867, 225.47 ], [ 5.456898496, 45.20583383, 225.48 ], [ 5.457010024, 45.20597038, 225.63 ], [ 5.4570698, 45.206014106, 226.14 ], [ 5.45728917, 45.20616873, 225.55 ], [ 5.458060315, 45.20663822, 223.47 ], [ 5.458660294, 45.206997069, 221.26 ], [ 5.459108666, 45.20726421, 219.66 ], [ 5.459373672, 45.207436203, 217.28 ], [ 5.459612627, 45.20760985, 215.99 ], [ 5.45980225, 45.20781215, 215.17 ], [ 5.459951709, 45.207987768, 215.04 ], [ 5.460091144, 45.208199281, 214.89 ], [ 5.460236533, 45.208510928, 213.51 ], [ 5.460366188, 45.208795264, 211.03 ], [ 5.461835153, 45.207961617, 208.96 ], [ 5.462144438, 45.207799876, 206.18 ], [ 5.46235554, 45.207703912, 201.71 ], [ 5.462606305, 45.207633839, 198.68 ], [ 5.46289775, 45.207607639, 197.16 ], [ 5.46317951, 45.20763572, 196.02 ], [ 5.463438375, 45.207709466, 195.11 ], [ 5.46364789, 45.207811601, 195.6 ], [ 5.463807568, 45.207933148, 195.89 ], [ 5.463942815, 45.208073384, 196.11 ], [ 5.464040429, 45.208223683, 194.59 ], [ 5.464154302, 45.208436544, 193.93 ], [ 5.464264632, 45.208586486, 192.37 ], [ 5.464438037, 45.208725653, 190.59 ], [ 5.464609419, 45.20882886, 188.35 ], [ 5.464830144, 45.208903671, 187.58 ], [ 5.465074269, 45.208941816, 186.77 ], [ 5.465328581, 45.208934656, 186.19 ], [ 5.46559308, 45.208882196, 185.88 ], [ 5.465791968, 45.208795571, 186.1 ], [ 5.465846473, 45.208764337, 186.18 ], [ 5.465936267, 45.208770331, 185.09 ], [ 5.466062027, 45.20879944, 185.04 ], [ 5.46627528, 45.208847881, 185.03 ], [ 5.466380687, 45.208877239, 184.06 ], [ 5.466452644, 45.208902225, 183.7 ], [ 5.466702327, 45.209022432, 183.86 ], [ 5.467024782, 45.209186004, 184.7 ], [ 5.467875913, 45.209729369, 186.43 ], [ 5.468652077, 45.210244743, 187.31 ], [ 5.469348708, 45.21069441, 188.34 ], [ 5.470993835, 45.211761921, 186.79 ], [ 5.472184245, 45.212552258, 184.12 ], [ 5.473314637, 45.213292807, 180.82 ], [ 5.473979529, 45.213840252, 179.15 ], [ 5.474209849, 45.214044687, 176.37 ], [ 5.474476925, 45.214295325, 176.39 ], [ 5.474748566, 45.214550972, 176.67 ], [ 5.475013573, 45.214820053, 177.19 ], [ 5.475273303, 45.215100494, 177.01 ], [ 5.475515745, 45.21538234, 177.09 ], [ 5.475770607, 45.215683331, 177.18 ], [ 5.476018475, 45.215989587, 176.85 ], [ 5.476265354, 45.216306085, 176.46 ], [ 5.476522304, 45.216621338, 176.78 ], [ 5.476790187, 45.216954746, 176.88 ], [ 5.477088503, 45.217289523, 176.87 ], [ 5.477401769, 45.217635212, 176.7 ], [ 5.477763262, 45.217992095, 176.83 ], [ 5.478161552, 45.218330784, 176.49 ], [ 5.478572715, 45.21866612, 176.89 ], [ 5.478975169, 45.219000625, 178.4 ], [ 5.479285681, 45.219251312, 179.73 ], [ 5.479397083, 45.219317322, 181.85 ], [ 5.479506632, 45.219374173, 183.93 ], [ 5.481732457, 45.220448066, 184.59 ], [ 5.48216941, 45.220679581, 183.59 ], [ 5.48261021, 45.220932474, 183.43 ], [ 5.483481446, 45.22146506, 181.57 ], [ 5.484402301, 45.222072175, 179.22 ], [ 5.484835591, 45.22235078, 179.26 ], [ 5.485180619, 45.222660988, 180.34 ], [ 5.48526118, 45.222813539, 181.12 ], [ 5.485306876, 45.22290113, 181.69 ], [ 5.485312957, 45.222912787, 182.81 ], [ 5.485406667, 45.223092412, 182.64 ], [ 5.485696781, 45.22389038, 182.16 ], [ 5.485726918, 45.224079828, 181.69 ], [ 5.485736469, 45.224813512, 181.6 ], [ 5.485733643, 45.225399261, 181.69 ], [ 5.48566088, 45.225616551, 182.53 ], [ 5.485442348, 45.226360422, 182.59 ], [ 5.485310859, 45.226785491, 181.91 ], [ 5.485152133, 45.2274759, 180.82 ], [ 5.484986551, 45.22833716, 180.0 ], [ 5.484901087, 45.228821511, 178.52 ], [ 5.484850354, 45.229176301, 177.16 ], [ 5.484821832, 45.229510153, 176.58 ], [ 5.484840643, 45.229867483, 176.59 ], [ 5.4848547, 45.230183013, 176.95 ], [ 5.484895065, 45.230439694, 177.08 ], [ 5.484960672, 45.230613532, 177.94 ], [ 5.484978392, 45.231011262, 178.5 ], [ 5.484996528, 45.231093652, 178.72 ], [ 5.485171517, 45.231482261, 178.63 ], [ 5.485308571, 45.231863537, 178.46 ], [ 5.485495024, 45.232217139, 178.23 ], [ 5.485692859, 45.232566398, 178.75 ], [ 5.485840071, 45.232785949, 179.4 ], [ 5.485951314, 45.232944972, 179.45 ], [ 5.486048993, 45.233059323, 179.84 ], [ 5.486615597, 45.233568005, 180.7 ], [ 5.487068242, 45.233889103, 180.58 ], [ 5.487839287, 45.234440247, 180.4 ], [ 5.488268218, 45.234715873, 179.82 ], [ 5.488699405, 45.234977136, 179.3 ], [ 5.490334424, 45.235955691, 177.99 ], [ 5.490743847, 45.23618268, 177.53 ], [ 5.491582128, 45.236650529, 177.18 ], [ 5.493010371, 45.237402653, 177.28 ], [ 5.49390162, 45.237857039, 178.12 ], [ 5.494415057, 45.238112357, 179.02 ], [ 5.495787905, 45.238853419, 179.3 ], [ 5.496268483, 45.23911764, 179.62 ], [ 5.496748335, 45.239365521, 180.26 ], [ 5.49722991, 45.239619495, 179.97 ], [ 5.497384249, 45.239705994, 179.69 ], [ 5.497637018, 45.239890464, 180.71 ], [ 5.497964754, 45.240133563, 181.95 ], [ 5.498524338, 45.24061066, 182.63 ], [ 5.499055436, 45.241097592, 183.28 ], [ 5.499483909, 45.241489712, 183.93 ], [ 5.499867882, 45.241857272, 183.81 ], [ 5.500258282, 45.242238999, 184.25 ], [ 5.500497025, 45.24249737, 185.64 ], [ 5.500849074, 45.242862576, 186.4 ], [ 5.501235055, 45.243306749, 186.6 ], [ 5.501557631, 45.243692033, 186.5 ], [ 5.501870368, 45.24408367, 184.69 ], [ 5.502187492, 45.24447623, 182.31 ], [ 5.502485966, 45.244872274, 181.16 ], [ 5.502771389, 45.245267586, 180.51 ], [ 5.503007349, 45.245656851, 180.47 ], [ 5.503236772, 45.246061594, 180.55 ], [ 5.503440593, 45.246476111, 180.86 ], [ 5.503647399, 45.246892604, 180.66 ], [ 5.503841542, 45.247284849, 180.9 ], [ 5.504066, 45.247675392, 179.94 ], [ 5.504304917, 45.248065611, 180.14 ], [ 5.504529427, 45.248457175, 179.99 ], [ 5.50477381, 45.248840115, 180.32 ], [ 5.505310269, 45.249636613, 179.79 ], [ 5.505589863, 45.250030006, 180.28 ], [ 5.505854109, 45.250436009, 180.08 ], [ 5.505976092, 45.250638727, 180.12 ], [ 5.506118774, 45.250851201, 180.24 ], [ 5.506434336, 45.251239698, 182.35 ], [ 5.506767022, 45.251622698, 183.77 ], [ 5.507371181, 45.252314431, 185.98 ], [ 5.507683156, 45.252654964, 187.94 ], [ 5.507745525, 45.252727385, 189.87 ], [ 5.507762951, 45.25274762, 188.41 ], [ 5.507979371, 45.252998916, 186.9 ], [ 5.510580508, 45.255648204, 185.28 ], [ 5.512129468, 45.257199786, 183.28 ], [ 5.512469679, 45.257523318, 181.02 ], [ 5.512790253, 45.257860577, 180.6 ], [ 5.51311838, 45.258204822, 180.56 ], [ 5.513164666, 45.258253628, 180.36 ], [ 5.513213977, 45.258305624, 180.59 ], [ 5.513449634, 45.258554106, 180.9 ], [ 5.513773799, 45.258906616, 180.74 ], [ 5.51410311, 45.259244699, 180.65 ], [ 5.514453125, 45.259592536, 180.76 ], [ 5.514828848, 45.259932639, 180.75 ], [ 5.515184426, 45.260275239, 180.42 ], [ 5.515521212, 45.26061826, 180.51 ], [ 5.515841389, 45.260978009, 180.45 ], [ 5.516184935, 45.261342342, 180.7 ], [ 5.516525253, 45.261731278, 181.67 ], [ 5.516826537, 45.262121093, 183.2 ], [ 5.517076048, 45.262518206, 184.4 ], [ 5.517326964, 45.262914265, 186.52 ], [ 5.517605032, 45.263302556, 188.1 ], [ 5.517882304, 45.263705175, 188.49 ], [ 5.518166211, 45.264094356, 189.49 ], [ 5.518436691, 45.264474639, 190.96 ], [ 5.518662528, 45.264797398, 191.52 ], [ 5.518691262, 45.264838464, 191.18 ], [ 5.518695101, 45.26484395, 191.04 ], [ 5.518982203, 45.265207503, 189.33 ], [ 5.519250419, 45.265569436, 187.62 ], [ 5.519507209, 45.265934694, 185.35 ], [ 5.519808505, 45.266291792, 184.52 ], [ 5.519984046, 45.266556664, 184.78 ], [ 5.520050194, 45.266643078, 184.48 ], [ 5.52008247, 45.266748656, 184.89 ], [ 5.520344355, 45.267514484, 186.06 ], [ 5.520461955, 45.267906388, 185.33 ], [ 5.52068816, 45.268683242, 184.49 ], [ 5.520796904, 45.269071257, 184.44 ], [ 5.520908588, 45.269460228, 183.48 ], [ 5.521122576, 45.270254734, 182.58 ], [ 5.521329908, 45.271029969, 182.92 ], [ 5.521483584, 45.271419014, 182.35 ], [ 5.52160406, 45.271778143, 182.17 ], [ 5.521710923, 45.27212429, 182.3 ], [ 5.521809201, 45.272472676, 181.72 ], [ 5.521925727, 45.272808384, 181.37 ], [ 5.52198966, 45.272973554, 181.58 ], [ 5.5220832, 45.27328116, 181.7 ], [ 5.522133781, 45.273471164, 181.33 ], [ 5.522174483, 45.273634815, 181.87 ], [ 5.522202647, 45.273777283, 181.94 ], [ 5.522234242, 45.273963626, 182.1 ], [ 5.522268329, 45.274109027, 181.78 ], [ 5.522314322, 45.274229627, 182.0 ], [ 5.522441196, 45.274601899, 182.11 ], [ 5.522573394, 45.274963829, 181.92 ], [ 5.522731811, 45.275329256, 181.49 ], [ 5.522879968, 45.275691849, 181.55 ], [ 5.523026819, 45.276057536, 181.67 ], [ 5.523162332, 45.276428591, 181.24 ], [ 5.523289032, 45.276796777, 181.31 ], [ 5.523425104, 45.277180085, 181.36 ], [ 5.523498641, 45.277385171, 181.34 ], [ 5.523499633, 45.277387937, 181.44 ], [ 5.523698516, 45.277942583, 181.65 ], [ 5.523847426, 45.278321513, 182.22 ], [ 5.523984569, 45.278728306, 183.26 ], [ 5.52412439, 45.27909824, 184.47 ], [ 5.524256596, 45.279491856, 185.38 ], [ 5.5243965, 45.27989552, 186.6 ], [ 5.52454373, 45.280301063, 187.89 ], [ 5.524692824, 45.280715763, 187.38 ], [ 5.524824194, 45.281122686, 188.09 ], [ 5.525011362, 45.281546747, 187.18 ], [ 5.525278419, 45.282327785, 186.63 ], [ 5.525398086, 45.282731906, 185.66 ], [ 5.525529142, 45.28313168, 185.56 ], [ 5.525648304, 45.283524567, 184.29 ], [ 5.525774423, 45.283911165, 184.09 ], [ 5.525888601, 45.284289855, 183.1 ], [ 5.526023275, 45.284641506, 182.48 ], [ 5.526179231, 45.284983475, 183.2 ], [ 5.526497085, 45.285638659, 183.75 ], [ 5.526654783, 45.285955035, 183.57 ], [ 5.526771353, 45.286194656, 184.06 ], [ 5.526808847, 45.286255138, 183.82 ], [ 5.526874568, 45.286331338, 182.68 ], [ 5.526998978, 45.28650434, 182.29 ], [ 5.527008313, 45.286566481, 183.44 ], [ 5.526976745, 45.286636703, 184.53 ], [ 5.526950546, 45.286697602, 184.76 ], [ 5.526933074, 45.286759328, 185.1 ], [ 5.526982037, 45.286849194, 184.8 ], [ 5.527230062, 45.287081754, 184.29 ], [ 5.527507425, 45.287354538, 182.72 ], [ 5.527790995, 45.28763638, 182.72 ], [ 5.528022816, 45.287926547, 183.01 ], [ 5.528227039, 45.288278667, 183.47 ], [ 5.528396409, 45.288628509, 183.52 ], [ 5.528565745, 45.288945642, 184.26 ], [ 5.528852434, 45.289295897, 184.77 ], [ 5.52897102, 45.289374715, 185.19 ], [ 5.529005534, 45.289397655, 184.79 ], [ 5.529233184, 45.289548962, 185.24 ], [ 5.529562343, 45.289750039, 185.91 ], [ 5.5299426, 45.289960182, 186.8 ], [ 5.530430856, 45.290284407, 187.19 ], [ 5.530716958, 45.290461924, 187.83 ], [ 5.531556409, 45.290866103, 189.92 ], [ 5.533113019, 45.291340919, 190.42 ], [ 5.534092337, 45.291635605, 190.66 ], [ 5.535227175, 45.291847028, 191.11 ], [ 5.536379608, 45.29209484, 191.21 ], [ 5.537592124, 45.292262568, 188.13 ], [ 5.538813134, 45.292489378, 187.22 ], [ 5.539943903, 45.292674269, 185.67 ], [ 5.540879523, 45.292803276, 185.92 ], [ 5.541542984, 45.292902684, 185.53 ], [ 5.542093605, 45.293004652, 187.19 ], [ 5.542719085, 45.293096739, 186.9 ], [ 5.543487228, 45.293205, 187.11 ], [ 5.544304095, 45.293333612, 187.47 ], [ 5.545245196, 45.293455302, 188.69 ], [ 5.545806144, 45.293529419, 187.7 ], [ 5.546301057, 45.293584594, 188.59 ], [ 5.546935137, 45.293642729, 188.62 ], [ 5.547900328, 45.293720918, 186.68 ], [ 5.549019807, 45.293816025, 186.79 ], [ 5.549910243, 45.293906121, 188.68 ], [ 5.550532707, 45.293931792, 189.85 ], [ 5.55093648, 45.293925649, 191.76 ], [ 5.551547362, 45.293856516, 194.2 ], [ 5.552662255, 45.293756454, 195.09 ], [ 5.553245649, 45.293719626, 195.56 ], [ 5.5537008, 45.293696968, 195.77 ], [ 5.554470354, 45.293677348, 197.01 ], [ 5.555228022, 45.293745903, 197.34 ], [ 5.55576729, 45.293852153, 196.6 ], [ 5.556613885, 45.29402804, 195.07 ], [ 5.557447009, 45.294257382, 192.5 ], [ 5.557922041, 45.294446866, 189.19 ], [ 5.558391344, 45.294669189, 186.35 ], [ 5.558649694, 45.294839095, 184.37 ], [ 5.558851428, 45.294974518, 182.98 ], [ 5.559064643, 45.295107635, 182.92 ], [ 5.559276975, 45.295253037, 183.34 ], [ 5.559568856, 45.295490659, 183.68 ], [ 5.559771908, 45.295654673, 184.02 ], [ 5.559995687, 45.295828433, 184.21 ], [ 5.560250793, 45.296053608, 184.14 ], [ 5.560589589, 45.296303442, 183.61 ], [ 5.560962986, 45.296612792, 183.11 ], [ 5.561049991, 45.296689221, 182.67 ], [ 5.561163717, 45.296789122, 182.5 ], [ 5.561284201, 45.296889604, 182.5 ], [ 5.561350583, 45.29694737, 182.58 ], [ 5.561493841, 45.297039153, 182.58 ], [ 5.561659334, 45.297205045, 182.67 ], [ 5.561855579, 45.297346723, 183.48 ], [ 5.562087308, 45.29753563, 184.63 ], [ 5.562321792, 45.297721407, 185.48 ], [ 5.562606689, 45.297932605, 186.23 ], [ 5.562733004, 45.298002287, 187.25 ], [ 5.562859553, 45.298077073, 187.95 ], [ 5.563110876, 45.298219531, 188.33 ], [ 5.563408407, 45.298358885, 188.51 ], [ 5.563717512, 45.298497973, 188.91 ], [ 5.564045042, 45.298596772, 189.71 ], [ 5.564388206, 45.298689079, 190.36 ], [ 5.564724737, 45.298763137, 190.36 ], [ 5.565064447, 45.298843255, 190.35 ], [ 5.5653907, 45.298882793, 190.16 ], [ 5.565746021, 45.298893041, 190.04 ], [ 5.566103165, 45.298911425, 190.49 ], [ 5.566459792, 45.298918575, 191.89 ], [ 5.566829853, 45.298902927, 193.66 ], [ 5.567177222, 45.298866333, 195.53 ], [ 5.567547352, 45.29878935, 196.39 ], [ 5.567966202, 45.298701025, 194.73 ], [ 5.568402918, 45.298591845, 193.92 ], [ 5.569071146, 45.298414992, 193.07 ], [ 5.569792618, 45.298230778, 190.88 ], [ 5.570517201, 45.298019911, 190.26 ], [ 5.571194331, 45.297847951, 191.55 ], [ 5.573048496, 45.297352478, 192.4 ], [ 5.573753665, 45.297158273, 193.46 ], [ 5.573988091, 45.29709371, 195.02 ], [ 5.574707092, 45.296888054, 194.18 ], [ 5.575096179, 45.29678301, 195.28 ], [ 5.575406919, 45.296706346, 195.22 ], [ 5.575645415, 45.296633389, 193.17 ], [ 5.575896144, 45.296574461, 191.28 ], [ 5.576209728, 45.296496706, 191.6 ], [ 5.576325207, 45.296478625, 190.43 ], [ 5.576696969, 45.296420416, 189.33 ], [ 5.576990504, 45.296374455, 189.76 ], [ 5.577404591, 45.29634038, 190.31 ], [ 5.577676063, 45.296322879, 189.68 ], [ 5.577990075, 45.296348352, 188.62 ], [ 5.578291303, 45.296379229, 187.67 ], [ 5.578559191, 45.296378164, 186.85 ], [ 5.578653398, 45.296387293, 187.45 ], [ 5.578738135, 45.296395504, 187.76 ], [ 5.578920304, 45.296419925, 187.0 ], [ 5.578985144, 45.296435432, 187.13 ], [ 5.579185383, 45.296483321, 188.31 ], [ 5.580042143, 45.296688442, 188.35 ], [ 5.580198454, 45.296726419, 188.68 ], [ 5.580624088, 45.296829828, 189.08 ], [ 5.580624142, 45.296829841, 188.84 ], [ 5.58083753, 45.296881685, 187.49 ], [ 5.581063786, 45.296951084, 187.24 ], [ 5.581237913, 45.297020663, 186.01 ], [ 5.5814979, 45.297162087, 185.39 ], [ 5.581727802, 45.297287144, 185.22 ], [ 5.581753477, 45.297301111, 185.02 ], [ 5.581921196, 45.297419902, 184.72 ], [ 5.582586696, 45.297872702, 185.74 ], [ 5.583300447, 45.298366294, 186.92 ], [ 5.583946877, 45.298813394, 186.71 ], [ 5.584546523, 45.299219661, 187.2 ], [ 5.585079221, 45.299587607, 186.91 ], [ 5.585307654, 45.299747991, 186.24 ], [ 5.585392131, 45.299807302, 185.47 ], [ 5.585412086, 45.299825654, 185.66 ], [ 5.585457188, 45.29986713, 185.73 ], [ 5.585533159, 45.299912395, 186.03 ], [ 5.585636356, 45.299982586, 186.06 ], [ 5.586123578, 45.300306602, 186.25 ], [ 5.586656771, 45.300684751, 186.44 ], [ 5.587241491, 45.30104944, 186.38 ], [ 5.587245613, 45.301051915, 186.64 ], [ 5.587928378, 45.30146185, 187.01 ], [ 5.588691723, 45.301867376, 187.3 ], [ 5.589053233, 45.302029111, 187.58 ], [ 5.589053272, 45.302029128, 187.42 ], [ 5.58905332, 45.302029149, 188.16 ], [ 5.589280451, 45.302130764, 189.08 ], [ 5.589324116, 45.302145672, 190.01 ], [ 5.589324168, 45.302145689, 190.76 ], [ 5.589324218, 45.302145707, 192.1 ], [ 5.58972347, 45.302282015, 190.99 ], [ 5.591108754, 45.302698678, 190.22 ], [ 5.592096115, 45.302905796, 189.57 ], [ 5.592995357, 45.303055661, 190.13 ], [ 5.593723908, 45.303148144, 189.87 ], [ 5.594770797, 45.303140218, 191.04 ], [ 5.595736421, 45.303129058, 192.96 ], [ 5.596545947, 45.303156267, 194.46 ], [ 5.597337456, 45.303231933, 193.96 ], [ 5.598106168, 45.303284611, 193.78 ], [ 5.598378728, 45.303289225, 194.2 ], [ 5.598471268, 45.303290792, 193.26 ], [ 5.598742561, 45.303295383, 193.47 ], [ 5.599226376, 45.303264719, 194.06 ], [ 5.599787307, 45.303241461, 193.96 ], [ 5.599914271, 45.303246177, 193.52 ], [ 5.600132232, 45.303276376, 193.97 ], [ 5.600528083, 45.303316239, 194.25 ], [ 5.601263457, 45.303306294, 193.02 ], [ 5.602045307, 45.303236999, 192.85 ], [ 5.602974344, 45.30318676, 193.78 ], [ 5.603887464, 45.303136885, 194.15 ], [ 5.604813775, 45.303028429, 193.94 ], [ 5.605657131, 45.302911677, 195.69 ], [ 5.606575526, 45.302696058, 196.21 ], [ 5.606715317, 45.302649869, 195.29 ], [ 5.607472801, 45.302338839, 194.62 ], [ 5.608271709, 45.302015594, 193.34 ], [ 5.609121334, 45.301723871, 193.1 ], [ 5.609930508, 45.301372774, 195.0 ], [ 5.610879827, 45.301014313, 195.41 ], [ 5.611663884, 45.3007149, 196.1 ], [ 5.612429994, 45.300403635, 197.13 ], [ 5.613175362, 45.300082626, 197.22 ], [ 5.613283894, 45.300018758, 197.09 ], [ 5.613996377, 45.299491003, 198.65 ], [ 5.614599442, 45.298885048, 199.55 ], [ 5.615123239, 45.298349431, 201.72 ], [ 5.615587252, 45.297898008, 203.23 ], [ 5.616003761, 45.297422139, 203.55 ], [ 5.616909022, 45.296189642, 203.12 ], [ 5.616968992, 45.296078862, 203.42 ], [ 5.617013186, 45.296002185, 202.53 ], [ 5.617054245, 45.29592047, 202.31 ], [ 5.617138128, 45.295640465, 202.44 ], [ 5.61727827, 45.295232391, 201.81 ], [ 5.617294831, 45.295153293, 200.68 ], [ 5.617394376, 45.294713457, 200.94 ], [ 5.617521532, 45.294152355, 200.63 ], [ 5.617549967, 45.29401778, 200.06 ], [ 5.617574364, 45.293944519, 199.93 ], [ 5.617586163, 45.293894267, 200.01 ], [ 5.617602601, 45.293818751, 198.86 ], [ 5.617808905, 45.292870933, 197.54 ], [ 5.618047265, 45.292241806, 197.27 ], [ 5.618194492, 45.291584145, 196.92 ], [ 5.618295189, 45.290891796, 196.98 ], [ 5.618448243, 45.290235021, 196.97 ], [ 5.618613682, 45.289595333, 197.31 ], [ 5.618753366, 45.288962381, 197.18 ], [ 5.6188901, 45.288359142, 197.67 ], [ 5.618989681, 45.287858994, 197.25 ], [ 5.619090645, 45.287419124, 196.75 ], [ 5.619140222, 45.287149122, 197.22 ], [ 5.619283837, 45.286569232, 198.1 ], [ 5.6194714, 45.286092577, 198.96 ], [ 5.619613309, 45.285568949, 199.35 ], [ 5.619757504, 45.284939979, 200.04 ], [ 5.619872706, 45.284371999, 200.07 ], [ 5.619952953, 45.283799726, 197.67 ], [ 5.620072687, 45.283205061, 196.95 ], [ 5.620197581, 45.282596987, 198.12 ], [ 5.620351304, 45.281986193, 199.35 ], [ 5.620460667, 45.281386661, 202.13 ], [ 5.620572872, 45.280786039, 205.77 ], [ 5.620644865, 45.280192493, 206.66 ], [ 5.62065927, 45.278959373, 207.05 ], [ 5.620702918, 45.278348092, 206.35 ], [ 5.620933904, 45.277194738, 203.56 ], [ 5.621098741, 45.276574482, 201.66 ], [ 5.621194186, 45.276325892, 201.42 ], [ 5.621258162, 45.276023863, 200.66 ], [ 5.62132391, 45.275790281, 200.62 ], [ 5.621367204, 45.275479537, 200.98 ], [ 5.621376267, 45.275210484, 201.19 ], [ 5.621359953, 45.275048335, 200.73 ], [ 5.621331211, 45.274837412, 200.2 ], [ 5.621375392, 45.274422383, 200.47 ], [ 5.621475022, 45.273924276, 200.54 ], [ 5.621573877, 45.273440498, 201.39 ], [ 5.621783254, 45.272998083, 202.64 ], [ 5.622011562, 45.272619623, 203.49 ], [ 5.622138188, 45.272357012, 203.42 ], [ 5.622167514, 45.272241837, 204.1 ], [ 5.62218151, 45.272139288, 204.15 ], [ 5.622159593, 45.272042693, 203.88 ], [ 5.622136999, 45.271962468, 203.34 ], [ 5.622137205, 45.271874554, 202.98 ], [ 5.622165854, 45.27177575, 202.58 ], [ 5.622271976, 45.271600507, 202.44 ], [ 5.622391599, 45.271404504, 202.95 ], [ 5.622525436, 45.271233723, 204.2 ], [ 5.622735814, 45.271089767, 201.82 ], [ 5.622867093, 45.2709262, 199.75 ], [ 5.62314539, 45.270410611, 198.74 ], [ 5.623436076, 45.269850776, 197.59 ], [ 5.623692184, 45.269386816, 196.08 ], [ 5.623778866, 45.269260072, 196.71 ], [ 5.623837345, 45.26917999, 196.69 ], [ 5.624310111, 45.268675165, 197.39 ], [ 5.624808372, 45.26812783, 197.1 ], [ 5.625284641, 45.267605541, 197.26 ], [ 5.625751019, 45.26711926, 198.76 ], [ 5.625822069, 45.267060348, 201.91 ], [ 5.625899772, 45.266989012, 201.71 ], [ 5.62642937, 45.266554398, 202.39 ], [ 5.626941377, 45.265992419, 203.17 ], [ 5.627430047, 45.265426896, 203.9 ], [ 5.627968298, 45.264900072, 203.56 ], [ 5.628541676, 45.264381619, 203.89 ], [ 5.62912439, 45.26390792, 204.97 ], [ 5.629713602, 45.263388066, 205.03 ], [ 5.63035818, 45.262906771, 205.05 ], [ 5.630954357, 45.262412301, 205.79 ], [ 5.631568695, 45.261904112, 207.24 ], [ 5.63216996, 45.26142587, 206.84 ], [ 5.632780035, 45.260919819, 206.98 ], [ 5.633388363, 45.260438338, 207.99 ], [ 5.633988728, 45.259911041, 208.66 ], [ 5.634607011, 45.259426252, 208.97 ], [ 5.635185045, 45.258947519, 209.12 ], [ 5.635807931, 45.258438081, 208.96 ], [ 5.636418856, 45.25795141, 208.79 ], [ 5.637033385, 45.257449317, 207.54 ], [ 5.637661302, 45.256985749, 206.52 ], [ 5.638169516, 45.256592468, 206.0 ], [ 5.638292775, 45.256505738, 204.46 ], [ 5.638440996, 45.256426594, 203.37 ], [ 5.638965844, 45.256170916, 202.46 ], [ 5.639727912, 45.255851366, 202.02 ], [ 5.640492959, 45.255533785, 202.65 ], [ 5.64113765, 45.255236474, 204.77 ], [ 5.641219541, 45.255198708, 206.22 ], [ 5.641300599, 45.255159647, 207.59 ], [ 5.641598753, 45.255015969, 208.58 ], [ 5.641885639, 45.254870166, 208.83 ], [ 5.64224725, 45.254652064, 208.05 ], [ 5.64249963, 45.254511165, 205.83 ], [ 5.643099117, 45.254182146, 203.58 ], [ 5.643404727, 45.253973542, 201.6 ], [ 5.643651265, 45.253801089, 199.74 ], [ 5.643878039, 45.25360866, 199.25 ], [ 5.64413815, 45.253386818, 198.55 ], [ 5.644688353, 45.25299558, 198.29 ], [ 5.645244378, 45.252605223, 199.43 ], [ 5.645715599, 45.25225776, 199.94 ], [ 5.646247495, 45.251786192, 200.41 ], [ 5.646761333, 45.251391715, 200.21 ], [ 5.647277241, 45.251010475, 200.84 ], [ 5.647765055, 45.250647277, 201.55 ], [ 5.64823215, 45.250305011, 203.04 ], [ 5.648685599, 45.249949778, 203.44 ], [ 5.64913457, 45.249622248, 205.53 ], [ 5.649552753, 45.249316914, 206.42 ], [ 5.649832924, 45.249122183, 205.95 ], [ 5.650137705, 45.248897224, 202.71 ], [ 5.650598745, 45.24854998, 201.27 ], [ 5.651086419, 45.248184725, 201.46 ], [ 5.651532459, 45.247826588, 201.73 ], [ 5.651912026, 45.24753136, 201.75 ], [ 5.651974643, 45.247478764, 204.79 ], [ 5.652273783, 45.247166021, 206.49 ], [ 5.652639326, 45.24675868, 206.94 ], [ 5.652905068, 45.246443662, 207.31 ], [ 5.653285444, 45.2459225, 207.44 ], [ 5.653529096, 45.245569161, 206.27 ], [ 5.653791731, 45.24521946, 204.88 ], [ 5.654055793, 45.244839057, 203.8 ], [ 5.654737976, 45.243940679, 203.16 ], [ 5.655052004, 45.243485487, 202.37 ], [ 5.655330212, 45.243098611, 202.97 ], [ 5.655641305, 45.242673131, 203.41 ], [ 5.655955721, 45.242256772, 203.26 ], [ 5.656258278, 45.24183456, 202.79 ], [ 5.656553945, 45.241419666, 202.8 ], [ 5.656574873, 45.241390502, 202.52 ], [ 5.656604339, 45.241349439, 203.18 ], [ 5.656837524, 45.241024481, 203.41 ], [ 5.657077624, 45.240688596, 203.86 ], [ 5.657254937, 45.240431892, 204.41 ], [ 5.657419791, 45.240217394, 204.64 ], [ 5.657531733, 45.240076732, 204.51 ], [ 5.657574054, 45.240023592, 204.93 ], [ 5.65757426, 45.240023241, 204.84 ], [ 5.657584365, 45.240006076, 203.96 ], [ 5.657816325, 45.23961201, 203.54 ], [ 5.658074246, 45.239194943, 203.1 ], [ 5.658260856, 45.239103104, 203.11 ], [ 5.658704276, 45.238995953, 203.23 ], [ 5.658858215, 45.239038289, 204.02 ], [ 5.659266496, 45.239180371, 204.05 ], [ 5.659522351, 45.239129815, 204.42 ], [ 5.659700248, 45.238916025, 204.31 ], [ 5.659884144, 45.238615716, 204.08 ], [ 5.659841936, 45.238367811, 203.86 ], [ 5.65972186, 45.237943383, 203.93 ], [ 5.659589836, 45.237511062, 204.06 ], [ 5.659554569, 45.237408657, 204.1 ], [ 5.659559442, 45.237328808, 204.25 ], [ 5.659619266, 45.237214139, 204.46 ], [ 5.659684077, 45.237104683, 204.8 ], [ 5.659814, 45.236916, 204.83 ], [ 5.659869, 45.236947, 204.93 ], [ 5.659953282, 45.236971198, 205.08 ], [ 5.660089681, 45.236979535, 205.02 ], [ 5.660164826, 45.236985242, 204.86 ], [ 5.66025645, 45.236993691, 205.21 ], [ 5.660361547, 45.236996913, 205.72 ], [ 5.66045065, 45.236964125, 205.86 ], [ 5.660490558, 45.236913597, 206.13 ], [ 5.660467667, 45.236714299, 206.53 ], [ 5.660470163, 45.236628884, 206.1 ], [ 5.660469107, 45.236552414, 205.65 ], [ 5.660471215, 45.236500571, 205.68 ], [ 5.660476674, 45.236436041, 205.67 ], [ 5.660483987, 45.236374023, 205.64 ], [ 5.660491411, 45.236317368, 205.65 ], [ 5.660506217, 45.236256194, 205.65 ], [ 5.660525459, 45.236181882, 205.66 ], [ 5.660543126, 45.236112461, 205.66 ], [ 5.660561013, 45.236050702, 205.05 ], [ 5.660579855, 45.235995308, 204.75 ], [ 5.660604221, 45.235937433, 204.38 ], [ 5.66063188, 45.235880349, 203.98 ], [ 5.660632126, 45.235880011, 203.57 ], [ 5.660644085, 45.235863523, 203.71 ], [ 5.660680866, 45.235812814, 203.5 ], [ 5.660969896, 45.235414345, 203.2 ], [ 5.661225696, 45.235075009, 203.18 ], [ 5.661560615, 45.234604989, 202.99 ], [ 5.661986422, 45.234038757, 203.59 ], [ 5.662306294, 45.233556826, 204.29 ], [ 5.662689921, 45.233046797, 204.75 ], [ 5.662970506, 45.232620999, 204.86 ], [ 5.663395929, 45.232107927, 205.05 ], [ 5.663650109, 45.231765557, 204.82 ], [ 5.663864867, 45.23147626, 204.59 ], [ 5.664346262, 45.230833049, 204.84 ], [ 5.664800387, 45.230194576, 205.07 ], [ 5.665240423, 45.229533948, 205.79 ], [ 5.665709367, 45.228903294, 205.91 ], [ 5.666117632, 45.228304754, 206.36 ], [ 5.666401839, 45.227895216, 206.58 ], [ 5.666686471, 45.227555178, 206.62 ], [ 5.666892449, 45.227294707, 206.16 ], [ 5.667149329, 45.226949197, 205.56 ], [ 5.667426443, 45.226542893, 205.55 ], [ 5.667663079, 45.226258176, 205.64 ], [ 5.668086318, 45.22564087, 205.61 ], [ 5.668477655, 45.225082591, 205.64 ], [ 5.668911674, 45.224479335, 206.22 ], [ 5.669348525, 45.223874987, 205.82 ], [ 5.669774073, 45.223306685, 205.56 ], [ 5.670281609, 45.222638289, 206.4 ], [ 5.670754923, 45.221950264, 206.33 ], [ 5.671238976, 45.221275268, 206.36 ], [ 5.67173362, 45.22061024, 206.8 ], [ 5.672165982, 45.219943632, 207.47 ], [ 5.672847708, 45.219168833, 206.94 ], [ 5.673453286, 45.218465364, 207.37 ], [ 5.674084264, 45.217809327, 207.44 ], [ 5.674476069, 45.217504524, 207.76 ], [ 5.674585131, 45.217426268, 207.56 ], [ 5.674852933, 45.217250166, 207.67 ], [ 5.675693891, 45.216720955, 208.23 ], [ 5.676578099, 45.216159014, 208.87 ], [ 5.677506169, 45.215727878, 208.75 ], [ 5.678417749, 45.215345176, 208.69 ], [ 5.679027793, 45.215038188, 208.53 ], [ 5.679451118, 45.214818477, 208.5 ], [ 5.679979938, 45.214536943, 208.54 ], [ 5.680504611, 45.214199285, 209.04 ], [ 5.68059745, 45.214144923, 209.72 ], [ 5.680675184, 45.21410728, 210.35 ], [ 5.680930741, 45.214008123, 209.9 ], [ 5.681141607, 45.21390546, 209.53 ], [ 5.681370235, 45.213794149, 209.42 ], [ 5.681533846, 45.213710585, 208.85 ], [ 5.681972975, 45.213486298, 208.48 ], [ 5.682727026, 45.21304703, 208.44 ], [ 5.68324394, 45.212789278, 208.61 ], [ 5.683570212, 45.212627082, 208.07 ], [ 5.683982365, 45.212446466, 207.68 ], [ 5.684370383, 45.212305273, 207.51 ], [ 5.684621425, 45.212232794, 207.92 ], [ 5.684936221, 45.212162869, 208.15 ], [ 5.685137735, 45.212113046, 208.14 ], [ 5.686504639, 45.211848125, 208.21 ], [ 5.687061683, 45.211733522, 208.28 ], [ 5.68753862, 45.211637201, 208.52 ], [ 5.688320428, 45.211475271, 208.79 ], [ 5.68910018, 45.211330762, 209.57 ], [ 5.689234731, 45.211301967, 210.1 ], [ 5.689428458, 45.211270723, 210.49 ], [ 5.690286649, 45.211133518, 209.92 ], [ 5.691375443, 45.21101017, 209.23 ], [ 5.692480287, 45.210859846, 208.63 ], [ 5.693325104, 45.210745428, 208.22 ], [ 5.693907255, 45.210672097, 207.39 ], [ 5.694416689, 45.210590294, 207.52 ], [ 5.695156312, 45.210453867, 207.65 ], [ 5.695670288, 45.210346393, 208.07 ], [ 5.696003589, 45.210270879, 208.57 ], [ 5.696251817, 45.210200485, 209.2 ], [ 5.697040039, 45.209962694, 209.16 ], [ 5.698030094, 45.209682197, 209.51 ], [ 5.698939917, 45.209357632, 209.78 ], [ 5.699808482, 45.209047344, 209.76 ], [ 5.700414935, 45.208789389, 210.47 ], [ 5.700753035, 45.208634011, 210.51 ], [ 5.700989209, 45.208524031, 209.79 ], [ 5.701181052, 45.208424323, 209.42 ], [ 5.70175802, 45.208125163, 209.36 ], [ 5.702031372, 45.207946814, 208.8 ], [ 5.702242844, 45.207855157, 208.94 ], [ 5.702350719, 45.207817501, 209.31 ], [ 5.702351232, 45.207817435, 209.02 ], [ 5.702376286, 45.207814183, 208.52 ], [ 5.702452973, 45.20780423, 209.27 ], [ 5.70259334, 45.207786013, 209.59 ], [ 5.702760158, 45.207736997, 209.45 ], [ 5.703008119, 45.207661483, 209.19 ], [ 5.703329, 45.20756887, 210.33 ], [ 5.703449141, 45.207541428, 210.07 ], [ 5.703535003, 45.207540998, 210.0 ], [ 5.70363049, 45.207523748, 210.19 ], [ 5.703724662, 45.207490341, 211.7 ], [ 5.703806773, 45.207461212, 212.63 ], [ 5.704414881, 45.207208307, 214.24 ], [ 5.705214211, 45.206873074, 214.86 ], [ 5.705983191, 45.206568216, 214.9 ], [ 5.706548841, 45.206334727, 213.76 ], [ 5.706839634, 45.2062183, 211.76 ], [ 5.707026123, 45.206142734, 210.39 ], [ 5.707169627, 45.206075365, 209.74 ], [ 5.707359315, 45.206020764, 209.52 ], [ 5.707485556, 45.206000237, 209.19 ], [ 5.707568437, 45.205979827, 209.28 ], [ 5.707686951, 45.205963664, 209.32 ], [ 5.707847216, 45.205884133, 208.96 ], [ 5.708222327, 45.205747256, 208.93 ], [ 5.708741174, 45.20559258, 209.7 ], [ 5.709226893, 45.205470395, 210.84 ], [ 5.709774169, 45.205335469, 210.7 ], [ 5.710149314, 45.205229252, 210.43 ], [ 5.710324288, 45.205169804, 210.55 ], [ 5.710530538, 45.205099374, 209.99 ], [ 5.71081071, 45.204972971, 208.97 ], [ 5.711291207, 45.204743569, 208.43 ], [ 5.711680171, 45.204475499, 208.97 ], [ 5.712125612, 45.204179476, 209.5 ], [ 5.712441504, 45.203925445, 210.13 ], [ 5.712791461, 45.203658318, 210.92 ], [ 5.713156651, 45.203407175, 210.55 ], [ 5.713519153, 45.203130541, 210.22 ], [ 5.713877119, 45.202849926, 209.56 ], [ 5.714174619, 45.202604514, 209.18 ], [ 5.714547919, 45.20231228, 209.42 ], [ 5.714919724, 45.201989415, 211.36 ], [ 5.715332416, 45.201645108, 211.9 ], [ 5.71564331, 45.201288965, 211.8 ], [ 5.715838555, 45.201022524, 211.66 ], [ 5.715910877, 45.200904231, 211.04 ], [ 5.715980712, 45.200764531, 209.41 ], [ 5.716078292, 45.200541354, 209.5 ], [ 5.71615675, 45.200311488, 209.99 ], [ 5.716184304, 45.200164639, 210.41 ], [ 5.71620773, 45.199962689, 210.33 ], [ 5.716203494, 45.199875661, 210.56 ], [ 5.716195902, 45.199719685, 210.52 ], [ 5.716181256, 45.199665303, 210.78 ], [ 5.716121779, 45.199444463, 210.75 ], [ 5.716064039, 45.199179065, 210.15 ], [ 5.716034333, 45.198954897, 210.12 ], [ 5.715989038, 45.198737241, 210.21 ], [ 5.71592175, 45.198364741, 209.92 ], [ 5.715844159, 45.197958758, 209.66 ], [ 5.715750237, 45.197543972, 210.47 ], [ 5.715691222, 45.197133448, 210.67 ], [ 5.715664177, 45.196726235, 210.66 ], [ 5.715725221, 45.19631688, 210.9 ], [ 5.715805238, 45.195911152, 210.72 ], [ 5.715875394, 45.195514456, 211.02 ], [ 5.715928652, 45.195344443, 211.09 ], [ 5.716056352, 45.19506969, 211.16 ], [ 5.716348434, 45.194657238, 211.25 ], [ 5.716542905, 45.194459383, 211.74 ], [ 5.716676633, 45.194339406, 211.33 ], [ 5.716986653, 45.194110618, 210.99 ], [ 5.717261931, 45.193938915, 210.43 ], [ 5.717669659, 45.193744355, 210.29 ], [ 5.717926348, 45.193622444, 209.66 ], [ 5.718210896, 45.193487121, 209.14 ], [ 5.718306778, 45.193452953, 209.14 ], [ 5.718717132, 45.193312442, 209.39 ], [ 5.719053257, 45.193250139, 209.11 ], [ 5.719402819, 45.193217218, 209.19 ], [ 5.719472131, 45.193222957, 209.74 ], [ 5.71961546, 45.193223179, 208.26 ], [ 5.719800165, 45.193226201, 210.95 ], [ 5.719800165, 45.193226201, 210.95 ], [ 5.719924187, 45.193229983, 209.64 ] ] ] } }
]
}
